"Station Name","HALIFAX STANFIELD INT'L A"
"Province","NOVA SCOTIA"
"Latitude","44.88"
"Longitude","-63.50"
"Elevation","145.40"
"Climate Identifier","8202250"
"WMO Identifier","71395"
"TC Identifier","YHZ"
"All times are specified in Local Standard Time (LST). Add 1 hour to adjust for Daylight Saving Time where and when it is observed."

"Legend"
"E","Estimated"
"M","Missing"
"NA","Not Available"
"‡","Partner data that is not subject to review by the National Climate Archives"

"Date/Time","Year","Month","Day","Time","Data Quality","Temp (°C)","Temp Flag","Dew Point Temp (°C)","Dew Point Temp Flag","Rel Hum (%)","Rel Hum Flag","Wind Dir (10s deg)","Wind Dir Flag","Wind Spd (km/h)","Wind Spd Flag","Visibility (km)","Visibility Flag","Stn Press (kPa)","Stn Press Flag","Hmdx","Hmdx Flag","Wind Chill","Wind Chill Flag","Weather"
"2003-09-01 00:00","2003","09","01","00:00"," ","12.1","","8.2","","77","","29","","7","","32.2","","100.61","","","","","","Mainly Clear"
"2003-09-01 01:00","2003","09","01","01:00"," ","11.8","","7.8","","76","","29","","7","","32.2","","100.59","","","","","","Mainly Clear"
"2003-09-01 02:00","2003","09","01","02:00"," ","11.4","","6.9","","74","","27","","6","","32.2","","100.55","","","","","","Mainly Clear"
"2003-09-01 03:00","2003","09","01","03:00"," ","10.9","","6.2","","73","","23","","6","","32.2","","100.54","","","","","","Clear"
"2003-09-01 04:00","2003","09","01","04:00"," ","10.9","","6.8","","76","","22","","6","","32.2","","100.52","","","","","","Mainly Clear"
"2003-09-01 05:00","2003","09","01","05:00"," ","10.8","","6.9","","77","","19","","7","","32.2","","100.51","","","","","","Mostly Cloudy"
"2003-09-01 06:00","2003","09","01","06:00"," ","10.5","","6.9","","78","","20","","11","","24.1","","100.50","","","","","","Mostly Cloudy"
"2003-09-01 07:00","2003","09","01","07:00"," ","11.1","","7.5","","78","","20","","7","","24.1","","100.48","","","","","","Mostly Cloudy"
"2003-09-01 08:00","2003","09","01","08:00"," ","12.5","","8.0","","74","","21","","11","","24.1","","100.45","","","","","","Cloudy"
"2003-09-01 09:00","2003","09","01","09:00"," ","13.9","","9.0","","72","","20","","11","","24.1","","100.44","","","","","","Cloudy"
"2003-09-01 10:00","2003","09","01","10:00"," ","17.1","","9.1","","59","","25","","15","","24.1","","100.43","","","","","","Cloudy"
"2003-09-01 11:00","2003","09","01","11:00"," ","18.1","","10.1","","60","","24","","9","","24.1","","100.39","","","","","","Mostly Cloudy"
"2003-09-01 12:00","2003","09","01","12:00"," ","19.1","","10.7","","58","","25","","13","","24.1","","100.33","","","","","","Mostly Cloudy"
"2003-09-01 13:00","2003","09","01","13:00"," ","19.7","","10.1","","54","","26","","17","","24.1","","100.24","","","","","","Mostly Cloudy"
"2003-09-01 14:00","2003","09","01","14:00"," ","19.8","","10.3","","54","","22","","22","","24.1","","100.17","","","","","","Mostly Cloudy"
"2003-09-01 15:00","2003","09","01","15:00"," ","19.2","","10.2","","56","","22","","20","","24.1","","100.15","","","","","","Mostly Cloudy"
"2003-09-01 16:00","2003","09","01","16:00"," ","18.9","","11.1","","61","","21","","22","","24.1","","100.08","","","","","","Mostly Cloudy"
"2003-09-01 17:00","2003","09","01","17:00"," ","18.2","","11.7","","66","","20","","15","","24.1","","100.08","","","","","","Mostly Cloudy"
"2003-09-01 18:00","2003","09","01","18:00"," ","17.5","","11.7","","69","","21","","11","","24.1","","100.08","","","","","","Mostly Cloudy"
"2003-09-01 19:00","2003","09","01","19:00"," ","16.6","","11.1","","70","","22","","11","","24.1","","100.07","","","","","","Mostly Cloudy"
"2003-09-01 20:00","2003","09","01","20:00"," ","15.8","","10.9","","73","","23","","11","","24.1","","100.11","","","","","","Mostly Cloudy"
"2003-09-01 21:00","2003","09","01","21:00"," ","15.8","","10.9","","73","","23","","13","","24.1","","100.13","","","","","","Mostly Cloudy"
"2003-09-01 22:00","2003","09","01","22:00"," ","15.3","","10.3","","72","","23","","11","","24.1","","100.12","","","","","","Mostly Cloudy"
"2003-09-01 23:00","2003","09","01","23:00"," ","14.8","","10.3","","74","","24","","11","","24.1","","100.12","","","","","","Mostly Cloudy"
"2003-09-02 00:00","2003","09","02","00:00"," ","14.4","","10.3","","76","","24","","13","","24.1","","100.11","","","","","","Mostly Cloudy"
"2003-09-02 01:00","2003","09","02","01:00"," ","13.5","","10.1","","80","","27","","6","","24.1","","100.09","","","","","","Mainly Clear"
"2003-09-02 02:00","2003","09","02","02:00"," ","13.9","","10.3","","79","","33","","13","","24.1","","100.15","","","","","","Mostly Cloudy"
"2003-09-02 03:00","2003","09","02","03:00"," ","13.5","","10.6","","83","","34","","15","","24.1","","100.15","","","","","","Mostly Cloudy"
"2003-09-02 04:00","2003","09","02","04:00"," ","13.1","","10.7","","85","","33","","17","","24.1","","100.19","","","","","","Mostly Cloudy"
"2003-09-02 05:00","2003","09","02","05:00"," ","12.5","","10.5","","88","","33","","17","","24.1","","100.21","","","","","","Mostly Cloudy"
"2003-09-02 06:00","2003","09","02","06:00"," ","12.1","","10.2","","88","","33","","15","","24.1","","100.27","","","","","","Cloudy"
"2003-09-02 07:00","2003","09","02","07:00"," ","12.0","","9.2","","83","","32","","13","","24.1","","100.34","","","","","","Cloudy"
"2003-09-02 08:00","2003","09","02","08:00"," ","12.3","","7.7","","73","","33","","11","","24.1","","100.36","","","","","","Mostly Cloudy"
"2003-09-02 09:00","2003","09","02","09:00"," ","12.8","","7.5","","70","","33","","11","","24.1","","100.39","","","","","","Cloudy"
"2003-09-02 10:00","2003","09","02","10:00"," ","13.5","","8.1","","70","","36","","13","","24.1","","100.42","","","","","","Cloudy"
"2003-09-02 11:00","2003","09","02","11:00"," ","14.9","","7.1","","60","","35","","15","","24.1","","100.43","","","","","","Mostly Cloudy"
"2003-09-02 12:00","2003","09","02","12:00"," ","15.7","","7.0","","56","","34","","11","","24.1","","100.46","","","","","","Cloudy"
"2003-09-02 13:00","2003","09","02","13:00"," ","16.2","","7.0","","54","","36","","13","","24.1","","100.46","","","","","","Mostly Cloudy"
"2003-09-02 14:00","2003","09","02","14:00"," ","16.7","","6.4","","51","","34","","13","","24.1","","100.43","","","","","","Mostly Cloudy"
"2003-09-02 15:00","2003","09","02","15:00"," ","16.5","","6.5","","52","","1","","9","","24.1","","100.43","","","","","","Mostly Cloudy"
"2003-09-02 16:00","2003","09","02","16:00"," ","16.9","","6.4","","50","","34","","7","","24.1","","100.45","","","","","","Mainly Clear"
"2003-09-02 17:00","2003","09","02","17:00"," ","17.1","","5.8","","47","","33","","9","","24.1","","100.46","","","","","","Mainly Clear"
"2003-09-02 18:00","2003","09","02","18:00"," ","16.3","","4.7","","46","","1","","6","","24.1","","100.48","","","","","","Mainly Clear"
"2003-09-02 19:00","2003","09","02","19:00"," ","14.8","","5.9","","55","","","","0","","24.1","","100.53","","","","","","Mainly Clear"
"2003-09-02 20:00","2003","09","02","20:00"," ","12.9","","5.9","","62","","","","0","","24.1","","100.58","","","","","","Mainly Clear"
"2003-09-02 21:00","2003","09","02","21:00"," ","11.6","","5.4","","66","","31","","4","","24.1","","100.61","","","","","","Mainly Clear"
"2003-09-02 22:00","2003","09","02","22:00"," ","11.5","","6.1","","69","","2","","4","","24.1","","100.63","","","","","","Mainly Clear"
"2003-09-02 23:00","2003","09","02","23:00"," ","11.1","","3.4","","59","","7","","7","","24.1","","100.62","","","","","","Clear"
"2003-09-03 00:00","2003","09","03","00:00"," ","11.5","","4.4","","62","","11","","6","","24.1","","100.62","","","","","","Clear"
"2003-09-03 01:00","2003","09","03","01:00"," ","9.6","","4.5","","70","","10","","7","","24.1","","100.62","","","","","","Clear"
"2003-09-03 02:00","2003","09","03","02:00"," ","8.5","","5.1","","79","","","","0","","24.1","","100.63","","","","","","Clear"
"2003-09-03 03:00","2003","09","03","03:00"," ","8.4","","6.7","","89","","35","","4","","24.1","","100.62","","","","","","Clear"
"2003-09-03 04:00","2003","09","03","04:00"," ","8.2","","5.4","","82","","","","0","","24.1","","100.61","","","","","","Clear"
"2003-09-03 05:00","2003","09","03","05:00"," ","7.8","","4.5","","80","","","","0","","24.1","","100.64","","","","","","Clear"
"2003-09-03 06:00","2003","09","03","06:00"," ","8.3","","4.6","","77","","","","0","","24.1","","100.65","","","","","","Clear"
"2003-09-03 07:00","2003","09","03","07:00"," ","11.7","","6.4","","70","","34","","4","","24.1","","100.68","","","","","","Clear"
"2003-09-03 08:00","2003","09","03","08:00"," ","12.4","","7.8","","73","","2","","4","","24.1","","100.72","","","","","","Clear"
"2003-09-03 09:00","2003","09","03","09:00"," ","14.1","","7.3","","64","","32","","4","","24.1","","100.71","","","","","","Clear"
"2003-09-03 10:00","2003","09","03","10:00"," ","16.4","","5.8","","49","","3","","4","","24.1","","100.70","","","","","","Clear"
"2003-09-03 11:00","2003","09","03","11:00"," ","17.9","","5.2","","43","","30","","4","","24.1","","100.70","","","","","","Mainly Clear"
"2003-09-03 12:00","2003","09","03","12:00"," ","18.7","","6.4","","45","","26","","6","","24.1","","100.63","","","","","","Mainly Clear"
"2003-09-03 13:00","2003","09","03","13:00"," ","19.0","","6.2","","43","","32","","4","","24.1","","100.56","","","","","","Clear"
"2003-09-03 14:00","2003","09","03","14:00"," ","19.6","","5.6","","40","","21","","13","","32.2","","100.53","","","","","","Mainly Clear"
"2003-09-03 15:00","2003","09","03","15:00"," ","19.7","","5.8","","40","","15","","17","","32.2","","100.53","","","","","","Mainly Clear"
"2003-09-03 16:00","2003","09","03","16:00"," ","18.7","","4.6","","39","","18","","19","","32.2","","100.53","","","","","","Clear"
"2003-09-03 17:00","2003","09","03","17:00"," ","17.8","","1.6","","34","","16","","19","","32.2","","100.57","","","","","","Mainly Clear"
"2003-09-03 18:00","2003","09","03","18:00"," ","17.1","","4.5","","43","","18","","15","","32.2","","100.55","","","","","","Mainly Clear"
"2003-09-03 19:00","2003","09","03","19:00"," ","14.2","","7.4","","64","","16","","9","","32.2","","100.56","","","","","","Mainly Clear"
"2003-09-03 20:00","2003","09","03","20:00"," ","12.5","","7.1","","70","","17","","9","","32.2","","100.59","","","","","","Mainly Clear"
"2003-09-03 21:00","2003","09","03","21:00"," ","11.5","","7.1","","74","","18","","4","","32.2","","100.60","","","","","","Mainly Clear"
"2003-09-03 22:00","2003","09","03","22:00"," ","11.8","","8.1","","78","","18","","9","","24.1","","100.59","","","","","","Mainly Clear"
"2003-09-03 23:00","2003","09","03","23:00"," ","9.7","","7.2","","84","","17","","11","","24.1","","100.56","","","","","","Mainly Clear"
"2003-09-04 00:00","2003","09","04","00:00"," ","11.1","","8.6","","85","","16","","9","","24.1","","100.55","","","","","","Mainly Clear"
"2003-09-04 01:00","2003","09","04","01:00"," ","11.3","","9.0","","86","","17","","7","","24.1","","100.54","","","","","","Mainly Clear"
"2003-09-04 02:00","2003","09","04","02:00"," ","10.1","","8.5","","90","","13","","9","","24.1","","100.48","","","","","","Clear"
"2003-09-04 03:00","2003","09","04","03:00"," ","10.1","","8.4","","89","","12","","9","","24.1","","100.44","","","","","","Mainly Clear"
"2003-09-04 04:00","2003","09","04","04:00"," ","10.3","","8.6","","89","","12","","9","","24.1","","100.35","","","","","","Mostly Cloudy"
"2003-09-04 05:00","2003","09","04","05:00"," ","9.8","","8.4","","91","","13","","13","","24.1","","100.31","","","","","","Mostly Cloudy"
"2003-09-04 06:00","2003","09","04","06:00"," ","11.2","","9.3","","88","","13","","15","","24.1","","100.32","","","","","","Mainly Clear"
"2003-09-04 07:00","2003","09","04","07:00"," ","12.8","","10.5","","86","","13","","13","","24.1","","100.32","","","","","","Mostly Cloudy"
"2003-09-04 08:00","2003","09","04","08:00"," ","14.1","","11.8","","86","","13","","13","","24.1","","100.28","","","","","","Mostly Cloudy"
"2003-09-04 09:00","2003","09","04","09:00"," ","16.6","","13.5","","82","","14","","20","","24.1","","100.23","","","","","","Cloudy"
"2003-09-04 10:00","2003","09","04","10:00"," ","17.3","","14.2","","82","","13","","24","","24.1","","100.13","","","","","","Cloudy"
"2003-09-04 11:00","2003","09","04","11:00"," ","18.1","","14.6","","80","","14","","24","","24.1","","100.08","","","","","","Rain"
"2003-09-04 12:00","2003","09","04","12:00"," ","16.9","","14.7","","87","","14","","26","","3.2","","99.97","","","","","","Rain,Fog"
"2003-09-04 13:00","2003","09","04","13:00"," ","16.3","","14.8","","91","","14","","26","","4.8","","99.86","","","","","","Rain,Fog"
"2003-09-04 14:00","2003","09","04","14:00"," ","16.6","","15.2","","91","","13","","28","","2.0","","99.71","","","","","","Moderate Rain,Fog"
"2003-09-04 15:00","2003","09","04","15:00"," ","17.1","","15.8","","92","","13","","20","","2.0","","99.59","","","","","","Moderate Rain,Fog"
"2003-09-04 16:00","2003","09","04","16:00"," ","18.2","","16.7","","91","","18","","17","","3.2","","99.49","","","","","","Rain,Fog"
"2003-09-04 17:00","2003","09","04","17:00"," ","18.8","","17.4","","92","","19","","20","","1.6","","99.45","","","","","","Heavy Rain,Fog"
"2003-09-04 18:00","2003","09","04","18:00"," ","19.6","","18.0","","90","","20","","26","","2.4","","99.42","","","","","","Moderate Rain,Fog"
"2003-09-04 19:00","2003","09","04","19:00"," ","18.9","","17.4","","91","","19","","28","","1.2","","99.33","","","","","","Rain,Fog"
"2003-09-04 20:00","2003","09","04","20:00"," ","18.3","","16.9","","92","","20","","24","","2.4","","99.36","","","","","","Fog"
"2003-09-04 21:00","2003","09","04","21:00"," ","17.9","","16.6","","92","","20","","28","","2.8","","99.36","","","","","","Fog"
"2003-09-04 22:00","2003","09","04","22:00"," ","18.2","","16.9","","92","","20","","26","","2.8","","99.33","","","","","","Rain Showers,Fog"
"2003-09-04 23:00","2003","09","04","23:00"," ","17.8","","16.6","","93","","20","","26","","3.2","","99.29","","","","","","Rain Showers,Fog"
"2003-09-05 00:00","2003","09","05","00:00"," ","17.8","","16.8","","94","","20","","32","","3.2","","99.28","","","","","","Rain Showers,Fog"
"2003-09-05 01:00","2003","09","05","01:00"," ","17.2","","16.1","","93","","21","","24","","2.4","","99.32","","","","","","Rain Showers,Fog"
"2003-09-05 02:00","2003","09","05","02:00"," ","17.8","","16.7","","93","","22","","20","","8.0","","99.26","","","","","","Rain Showers,Fog"
"2003-09-05 03:00","2003","09","05","03:00"," ","16.6","","15.5","","93","","19","","20","","4.8","","99.23","","","","","","Rain Showers,Fog"
"2003-09-05 04:00","2003","09","05","04:00"," ","16.6","","15.5","","93","","19","","15","","2.4","","99.22","","","","","","Rain Showers,Fog"
"2003-09-05 05:00","2003","09","05","05:00"," ","16.6","","15.6","","94","","21","","15","","2.4","","99.27","","","","","","Rain Showers,Fog"
"2003-09-05 06:00","2003","09","05","06:00"," ","16.6","","15.5","","93","","20","","13","","3.2","","99.34","","","","","","Rain Showers,Fog"
"2003-09-05 07:00","2003","09","05","07:00"," ","16.5","","15.5","","94","","21","","7","","3.2","","99.37","","","","","","Rain Showers,Fog"
"2003-09-05 08:00","2003","09","05","08:00"," ","16.4","","15.4","","94","","20","","15","","3.2","","99.44","","","","","","Rain Showers,Fog"
"2003-09-05 09:00","2003","09","05","09:00"," ","16.7","","15.7","","94","","19","","11","","3.2","","99.47","","","","","","Rain Showers,Fog"
"2003-09-05 10:00","2003","09","05","10:00"," ","17.7","","16.5","","93","","16","","7","","1.6","","99.41","","","","","","Rain Showers,Fog"
"2003-09-05 11:00","2003","09","05","11:00"," ","18.7","","17.0","","90","","20","","13","","4.0","","99.51","","","","","","Rain Showers,Fog"
"2003-09-05 12:00","2003","09","05","12:00"," ","18.4","","16.9","","91","","19","","13","","8.0","","99.46","","","","","","Drizzle,Fog"
"2003-09-05 13:00","2003","09","05","13:00"," ","18.5","","16.8","","90","","18","","9","","8.0","","99.39","","","","","","Rain Showers,Fog"
"2003-09-05 14:00","2003","09","05","14:00"," ","18.4","","16.9","","91","","19","","6","","4.8","","99.38","","","","","","Rain Showers,Fog"
"2003-09-05 15:00","2003","09","05","15:00"," ","18.4","","16.7","","90","","22","","19","","16.1","","99.40","","","","","","Cloudy"
"2003-09-05 16:00","2003","09","05","16:00"," ","18.5","","16.6","","89","","23","","11","","16.1","","99.42","","","","","","Cloudy"
"2003-09-05 17:00","2003","09","05","17:00"," ","18.3","","16.7","","90","","23","","9","","12.9","","99.45","","","","","","Cloudy"
"2003-09-05 18:00","2003","09","05","18:00"," ","18.1","","16.7","","92","","25","","9","","16.1","","99.48","","","","","","Cloudy"
"2003-09-05 19:00","2003","09","05","19:00"," ","17.7","","16.3","","92","","33","","7","","4.8","","99.50","","","","","","Fog"
"2003-09-05 20:00","2003","09","05","20:00"," ","17.0","","15.7","","92","","","","0","","3.2","","99.54","","","","","","Fog"
"2003-09-05 21:00","2003","09","05","21:00"," ","16.1","","15.1","","94","","24","","4","","0.4","","99.58","","","","","","Fog"
"2003-09-05 22:00","2003","09","05","22:00"," ","16.6","","15.5","","93","","29","","6","","0.8","","99.62","","","","","","Fog"
"2003-09-05 23:00","2003","09","05","23:00"," ","16.2","","15.2","","94","","27","","6","","0.8","","99.60","","","","","","Fog"
"2003-09-06 00:00","2003","09","06","00:00"," ","15.5","","14.7","","95","","28","","9","","1.6","","99.62","","","","","","Fog"
"2003-09-06 01:00","2003","09","06","01:00"," ","15.3","","14.5","","95","","31","","11","","2.4","","99.63","","","","","","Fog"
"2003-09-06 02:00","2003","09","06","02:00"," ","14.9","","14.2","","96","","28","","7","","1.0","","99.65","","","","","","Fog"
"2003-09-06 03:00","2003","09","06","03:00"," ","14.9","","14.0","","94","","31","","9","","1.0","","99.65","","","","","","Fog"
"2003-09-06 04:00","2003","09","06","04:00"," ","14.8","","13.9","","94","","33","","9","","1.0","","99.68","","","","","","Fog"
"2003-09-06 05:00","2003","09","06","05:00"," ","14.3","","13.4","","94","","33","","13","","1.0","","99.71","","","","","","Fog"
"2003-09-06 06:00","2003","09","06","06:00"," ","13.9","","13.0","","94","","34","","7","","1.0","","99.73","","","","","","Fog"
"2003-09-06 07:00","2003","09","06","07:00"," ","13.7","","12.9","","95","","34","","9","","0.2","","99.79","","","","","","Fog"
"2003-09-06 08:00","2003","09","06","08:00"," ","13.4","","12.5","","94","","33","","6","","0.2","","99.81","","","","","","Fog"
"2003-09-06 09:00","2003","09","06","09:00"," ","14.0","","13.4","","96","","31","","7","","0.6","","99.82","","","","","","Fog"
"2003-09-06 10:00","2003","09","06","10:00"," ","15.4","","14.2","","93","","34","","9","","16.1","","99.82","","","","","","Mostly Cloudy"
"2003-09-06 11:00","2003","09","06","11:00"," ","18.2","","15.0","","82","","1","","11","","24.1","","99.84","","","","","","Mostly Cloudy"
"2003-09-06 12:00","2003","09","06","12:00"," ","19.3","","14.4","","73","","1","","9","","24.1","","99.80","","","","","","Mainly Clear"
"2003-09-06 13:00","2003","09","06","13:00"," ","20.7","","14.5","","68","","36","","7","","24.1","","99.75","","","","","","Mainly Clear"
"2003-09-06 14:00","2003","09","06","14:00"," ","20.9","","14.0","","65","","29","","13","","32.2","","99.73","","","","","","Mainly Clear"
"2003-09-06 15:00","2003","09","06","15:00"," ","21.8","","13.4","","59","","30","","7","","32.2","","99.68","","25","","","","Mainly Clear"
"2003-09-06 16:00","2003","09","06","16:00"," ","22.5","","13.1","","55","","30","","11","","32.2","","99.66","","25","","","","Mainly Clear"
"2003-09-06 17:00","2003","09","06","17:00"," ","21.9","","12.1","","54","","30","","11","","32.2","","99.64","","","","","","Mainly Clear"
"2003-09-06 18:00","2003","09","06","18:00"," ","20.7","","12.3","","59","","32","","9","","32.2","","99.65","","","","","","Mainly Clear"
"2003-09-06 19:00","2003","09","06","19:00"," ","18.0","","14.1","","78","","18","","7","","19.3","","99.69","","","","","","Mainly Clear"
"2003-09-06 20:00","2003","09","06","20:00"," ","16.6","","13.7","","83","","18","","9","","32.2","","99.71","","","","","","Clear"
"2003-09-06 21:00","2003","09","06","21:00"," ","16.0","","13.4","","85","","22","","7","","32.2","","99.73","","","","","","Mainly Clear"
"2003-09-06 22:00","2003","09","06","22:00"," ","15.3","","12.9","","86","","21","","9","","24.1","","99.70","","","","","","Mainly Clear"
"2003-09-06 23:00","2003","09","06","23:00"," ","15.2","","12.2","","82","","20","","6","","24.1","","99.69","","","","","","Clear"
"2003-09-07 00:00","2003","09","07","00:00"," ","14.6","","11.4","","81","","","","0","","24.1","","99.67","","","","","","Clear"
"2003-09-07 01:00","2003","09","07","01:00"," ","13.1","","11.3","","89","","19","","4","","24.1","","99.65","","","","","","Clear"
"2003-09-07 02:00","2003","09","07","02:00"," ","12.3","","10.8","","91","","18","","4","","24.1","","99.61","","","","","","Clear"
"2003-09-07 03:00","2003","09","07","03:00"," ","12.3","","10.4","","88","","","","0","","24.1","","99.56","","","","","","Mainly Clear"
"2003-09-07 04:00","2003","09","07","04:00"," ","12.5","","10.7","","89","","21","","6","","24.1","","99.50","","","","","","Mainly Clear"
"2003-09-07 05:00","2003","09","07","05:00"," ","12.9","","10.8","","87","","19","","9","","24.1","","99.48","","","","","","Mainly Clear"
"2003-09-07 06:00","2003","09","07","06:00"," ","13.1","","10.9","","86","","24","","7","","24.1","","99.48","","","","","","Mainly Clear"
"2003-09-07 07:00","2003","09","07","07:00"," ","14.5","","11.7","","83","","21","","11","","24.1","","99.47","","","","","","Mainly Clear"
"2003-09-07 08:00","2003","09","07","08:00"," ","17.2","","11.7","","70","","24","","11","","24.1","","99.42","","","","","","Mainly Clear"
"2003-09-07 09:00","2003","09","07","09:00"," ","17.8","","12.6","","72","","27","","6","","24.1","","99.43","","","","","","Mainly Clear"
"2003-09-07 10:00","2003","09","07","10:00"," ","20.4","","13.6","","65","","28","","15","","24.1","","99.47","","","","","","Mainly Clear"
"2003-09-07 11:00","2003","09","07","11:00"," ","20.7","","12.4","","59","","29","","19","","24.1","","99.39","","","","","","Mainly Clear"
"2003-09-07 12:00","2003","09","07","12:00"," ","21.9","","13.2","","58","","31","","15","","24.1","","99.34","","25","","","","Clear"
"2003-09-07 13:00","2003","09","07","13:00"," ","23.2","","12.6","","51","","29","","17","","24.1","","99.30","","26","","","","Clear"
"2003-09-07 14:00","2003","09","07","14:00"," ","23.8","","11.9","","47","","29","","15","","32.2","","99.25","","26","","","","Mainly Clear"
"2003-09-07 15:00","2003","09","07","15:00"," ","23.3","","13.1","","53","","32","","22","","32.2","","99.27","","26","","","","Mainly Clear"
"2003-09-07 16:00","2003","09","07","16:00"," ","22.4","","12.6","","54","","31","","26","","32.2","","99.31","","25","","","","Mostly Cloudy"
"2003-09-07 17:00","2003","09","07","17:00"," ","21.1","","13.1","","60","","31","","17","","24.1","","99.35","","","","","","Mostly Cloudy"
"2003-09-07 18:00","2003","09","07","18:00"," ","20.1","","13.2","","64","","32","","13","","24.1","","99.38","","","","","","Mainly Clear"
"2003-09-07 19:00","2003","09","07","19:00"," ","18.2","","13.1","","72","","31","","11","","24.1","","99.40","","","","","","Mainly Clear"
"2003-09-07 20:00","2003","09","07","20:00"," ","16.8","","13.1","","79","","28","","6","","24.1","","99.45","","","","","","Mainly Clear"
"2003-09-07 21:00","2003","09","07","21:00"," ","16.0","","12.7","","81","","29","","9","","24.1","","99.46","","","","","","Mainly Clear"
"2003-09-07 22:00","2003","09","07","22:00"," ","15.7","","12.5","","81","","27","","9","","24.1","","99.47","","","","","","Mainly Clear"
"2003-09-07 23:00","2003","09","07","23:00"," ","15.3","","12.5","","83","","31","","11","","24.1","","99.53","","","","","","Mainly Clear"
"2003-09-08 00:00","2003","09","08","00:00"," ","14.7","","12.4","","86","","33","","11","","24.1","","99.57","","","","","","Mostly Cloudy"
"2003-09-08 01:00","2003","09","08","01:00"," ","13.5","","11.5","","88","","31","","7","","24.1","","99.59","","","","","","Mainly Clear"
"2003-09-08 02:00","2003","09","08","02:00"," ","13.0","","10.9","","87","","30","","9","","24.1","","99.61","","","","","","Mainly Clear"
"2003-09-08 03:00","2003","09","08","03:00"," ","12.1","","9.1","","82","","31","","7","","24.1","","99.61","","","","","","Mainly Clear"
"2003-09-08 04:00","2003","09","08","04:00"," ","11.3","","7.9","","80","","31","","13","","24.1","","99.64","","","","","","Clear"
"2003-09-08 05:00","2003","09","08","05:00"," ","10.5","","7.8","","83","","28","","9","","24.1","","99.69","","","","","","Clear"
"2003-09-08 06:00","2003","09","08","06:00"," ","10.2","","8.0","","86","","29","","11","","24.1","","99.74","","","","","","Clear"
"2003-09-08 07:00","2003","09","08","07:00"," ","11.5","","9.1","","85","","29","","13","","24.1","","99.79","","","","","","Clear"
"2003-09-08 08:00","2003","09","08","08:00"," ","13.0","","8.7","","75","","32","","19","","24.1","","99.81","","","","","","Clear"
"2003-09-08 09:00","2003","09","08","09:00"," ","14.8","","8.1","","64","","31","","20","","24.1","","99.84","","","","","","Clear"
"2003-09-08 10:00","2003","09","08","10:00"," ","15.9","","7.4","","57","","31","","24","","24.1","","99.84","","","","","","Clear"
"2003-09-08 11:00","2003","09","08","11:00"," ","17.1","","6.9","","51","","32","","28","","24.1","","99.85","","","","","","Clear"
"2003-09-08 12:00","2003","09","08","12:00"," ","18.0","","6.7","","48","","34","","22","","24.1","","99.87","","","","","","Mainly Clear"
"2003-09-08 13:00","2003","09","08","13:00"," ","18.2","","6.9","","48","","31","","20","","24.1","","99.88","","","","","","Mainly Clear"
"2003-09-08 14:00","2003","09","08","14:00"," ","18.3","","5.9","","44","","31","","26","","24.1","","99.89","","","","","","Mainly Clear"
"2003-09-08 15:00","2003","09","08","15:00"," ","18.6","","6.4","","45","","33","","22","","24.1","","99.87","","","","","","Mainly Clear"
"2003-09-08 16:00","2003","09","08","16:00"," ","18.2","","6.1","","45","","33","","24","","24.1","","99.91","","","","","","Mainly Clear"
"2003-09-08 17:00","2003","09","08","17:00"," ","18.2","","7.0","","48","","34","","22","","24.1","","99.94","","","","","","Mainly Clear"
"2003-09-08 18:00","2003","09","08","18:00"," ","15.6","","7.2","","57","","32","","13","","24.1","","100.01","","","","","","Mainly Clear"
"2003-09-08 19:00","2003","09","08","19:00"," ","14.2","","6.8","","61","","1","","9","","24.1","","100.12","","","","","","Mainly Clear"
"2003-09-08 20:00","2003","09","08","20:00"," ","12.5","","6.6","","67","","35","","7","","24.1","","100.21","","","","","","Mainly Clear"
"2003-09-08 21:00","2003","09","08","21:00"," ","11.5","","6.4","","71","","34","","7","","24.1","","100.26","","","","","","Mainly Clear"
"2003-09-08 22:00","2003","09","08","22:00"," ","12.0","","6.6","","69","","29","","4","","32.2","","100.34","","","","","","Mainly Clear"
"2003-09-08 23:00","2003","09","08","23:00"," ","11.5","","6.9","","73","","27","","6","","32.2","","100.37","","","","","","Mainly Clear"
"2003-09-09 00:00","2003","09","09","00:00"," ","10.2","","6.8","","79","","27","","6","","32.2","","100.42","","","","","","Mainly Clear"
"2003-09-09 01:00","2003","09","09","01:00"," ","9.9","","6.8","","81","","27","","7","","32.2","","100.46","","","","","","Mainly Clear"
"2003-09-09 02:00","2003","09","09","02:00"," ","8.9","","6.1","","83","","30","","9","","32.2","","100.50","","","","","","Clear"
"2003-09-09 03:00","2003","09","09","03:00"," ","8.7","","6.0","","83","","31","","9","","32.2","","100.52","","","","","","Clear"
"2003-09-09 04:00","2003","09","09","04:00"," ","8.0","","5.7","","85","","29","","7","","32.2","","100.56","","","","","","Clear"
"2003-09-09 05:00","2003","09","09","05:00"," ","7.2","","5.2","","87","","29","","9","","32.2","","100.62","","","","","","Mainly Clear"
"2003-09-09 06:00","2003","09","09","06:00"," ","7.4","","5.7","","89","","28","","7","","24.1","","100.71","","","","","","Mainly Clear"
"2003-09-09 07:00","2003","09","09","07:00"," ","9.1","","7.2","","88","","32","","11","","24.1","","100.76","","","","","","Mainly Clear"
"2003-09-09 08:00","2003","09","09","08:00"," ","10.6","","7.9","","83","","32","","7","","24.1","","100.81","","","","","","Mainly Clear"
"2003-09-09 09:00","2003","09","09","09:00"," ","12.5","","8.2","","75","","34","","17","","24.1","","100.87","","","","","","Mostly Cloudy"
"2003-09-09 10:00","2003","09","09","10:00"," ","14.2","","7.6","","64","","36","","13","","24.1","","100.91","","","","","","Mostly Cloudy"
"2003-09-09 11:00","2003","09","09","11:00"," ","15.5","","6.5","","55","","35","","19","","24.1","","100.90","","","","","","Mostly Cloudy"
"2003-09-09 12:00","2003","09","09","12:00"," ","16.0","","5.9","","51","","32","","13","","24.1","","100.89","","","","","","Mainly Clear"
"2003-09-09 13:00","2003","09","09","13:00"," ","15.9","","6.0","","52","","34","","15","","24.1","","100.89","","","","","","Mainly Clear"
"2003-09-09 14:00","2003","09","09","14:00"," ","16.4","","5.5","","48","","35","","9","","24.1","","100.86","","","","","","Mainly Clear"
"2003-09-09 15:00","2003","09","09","15:00"," ","16.8","","5.6","","48","","31","","15","","24.1","","100.84","","","","","","Mainly Clear"
"2003-09-09 16:00","2003","09","09","16:00"," ","15.8","","4.8","","48","","35","","13","","24.1","","100.84","","","","","","Mainly Clear"
"2003-09-09 17:00","2003","09","09","17:00"," ","15.5","","4.8","","49","","1","","9","","24.1","","100.83","","","","","","Mainly Clear"
"2003-09-09 18:00","2003","09","09","18:00"," ","14.7","","5.2","","53","","36","","7","","24.1","","100.86","","","","","","Clear"
"2003-09-09 19:00","2003","09","09","19:00"," ","13.1","","5.8","","61","","2","","4","","24.1","","100.87","","","","","","Mainly Clear"
"2003-09-09 20:00","2003","09","09","20:00"," ","12.0","","5.3","","64","","32","","6","","24.1","","100.89","","","","","","Clear"
"2003-09-09 21:00","2003","09","09","21:00"," ","10.9","","5.2","","68","","28","","4","","24.1","","100.89","","","","","","Clear"
"2003-09-09 22:00","2003","09","09","22:00"," ","10.2","","4.7","","69","","33","","9","","24.1","","100.87","","","","","","Clear"
"2003-09-09 23:00","2003","09","09","23:00"," ","9.7","","4.6","","70","","36","","4","","24.1","","100.81","","","","","","Clear"
"2003-09-10 00:00","2003","09","10","00:00"," ","9.0","","4.8","","75","","","","0","","24.1","","100.80","","","","","","Clear"
"2003-09-10 01:00","2003","09","10","01:00"," ","8.0","","4.6","","79","","23","","6","","24.1","","100.77","","","","","","Clear"
"2003-09-10 02:00","2003","09","10","02:00"," ","8.3","","5.0","","80","","22","","6","","24.1","","100.77","","","","","","Clear"
"2003-09-10 03:00","2003","09","10","03:00"," ","8.4","","4.8","","78","","23","","11","","24.1","","100.72","","","","","","Clear"
"2003-09-10 04:00","2003","09","10","04:00"," ","7.9","","4.6","","80","","23","","11","","24.1","","100.65","","","","","","Clear"
"2003-09-10 05:00","2003","09","10","05:00"," ","9.2","","5.4","","77","","24","","17","","24.1","","100.59","","","","","","Clear"
"2003-09-10 06:00","2003","09","10","06:00"," ","7.8","","4.6","","80","","26","","13","","24.1","","100.54","","","","","","Mainly Clear"
"2003-09-10 07:00","2003","09","10","07:00"," ","9.1","","4.1","","71","","25","","15","","24.1","","100.51","","","","","","Mainly Clear"
"2003-09-10 08:00","2003","09","10","08:00"," ","10.8","","4.6","","65","","25","","17","","24.1","","100.45","","","","","","Mainly Clear"
"2003-09-10 09:00","2003","09","10","09:00"," ","13.5","","5.5","","58","","25","","19","","24.1","","100.37","","","","","","Mainly Clear"
"2003-09-10 10:00","2003","09","10","10:00"," ","16.1","","5.6","","50","","27","","19","","24.1","","100.25","","","","","","Mainly Clear"
"2003-09-10 11:00","2003","09","10","11:00"," ","17.5","","5.3","","45","","25","","26","","24.1","","100.17","","","","","","Mainly Clear"
"2003-09-10 12:00","2003","09","10","12:00"," ","18.5","","5.7","","43","","29","","24","","24.1","","100.10","","","","","","Mainly Clear"
"2003-09-10 13:00","2003","09","10","13:00"," ","20.0","","5.7","","39","","27","","20","","24.1","","100.02","","","","","","Mainly Clear"
"2003-09-10 14:00","2003","09","10","14:00"," ","20.3","","5.7","","38","","27","","22","","24.1","","99.91","","","","","","Mainly Clear"
"2003-09-10 15:00","2003","09","10","15:00"," ","20.7","","5.4","","37","","26","","22","","24.1","","99.80","","","","","","Mainly Clear"
"2003-09-10 16:00","2003","09","10","16:00"," ","20.6","","6.0","","39","","28","","13","","24.1","","99.79","","","","","","Mostly Cloudy"
"2003-09-10 17:00","2003","09","10","17:00"," ","19.2","","4.7","","38","","29","","19","","24.1","","99.82","","","","","","Mostly Cloudy"
"2003-09-10 18:00","2003","09","10","18:00"," ","17.8","","5.4","","44","","30","","19","","24.1","","99.90","","","","","","Cloudy"
"2003-09-10 19:00","2003","09","10","19:00"," ","16.6","","6.5","","51","","29","","15","","24.1","","99.91","","","","","","Mostly Cloudy"
"2003-09-10 20:00","2003","09","10","20:00"," ","16.1","","6.9","","54","","31","","15","","24.1","","99.99","","","","","","Cloudy"
"2003-09-10 21:00","2003","09","10","21:00"," ","15.1","","8.1","","63","","34","","20","","24.1","","100.09","","","","","","Cloudy"
"2003-09-10 22:00","2003","09","10","22:00"," ","13.2","","9.1","","76","","35","","13","","24.1","","100.17","","","","","","Mainly Clear"
"2003-09-10 23:00","2003","09","10","23:00"," ","12.0","","8.8","","81","","36","","6","","24.1","","100.25","","","","","","Clear"
"2003-09-11 00:00","2003","09","11","00:00"," ","10.9","","7.8","","81","","36","","13","","24.1","","100.32","","","","","","Clear"
"2003-09-11 01:00","2003","09","11","01:00"," ","10.6","","6.7","","77","","36","","11","","24.1","","100.38","","","","","","Mainly Clear"
"2003-09-11 02:00","2003","09","11","02:00"," ","9.8","","6.2","","78","","36","","9","","24.1","","100.42","","","","","","Clear"
"2003-09-11 03:00","2003","09","11","03:00"," ","9.1","","6.5","","84","","1","","6","","24.1","","100.44","","","","","","Clear"
"2003-09-11 04:00","2003","09","11","04:00"," ","8.1","","6.2","","88","","1","","7","","24.1","","100.50","","","","","","Clear"
"2003-09-11 05:00","2003","09","11","05:00"," ","7.9","","6.2","","89","","","","0","","24.1","","100.53","","","","","","Mainly Clear"
"2003-09-11 06:00","2003","09","11","06:00"," ","7.5","","5.8","","89","","","","0","","24.1","","100.58","","","","","","Mainly Clear"
"2003-09-11 07:00","2003","09","11","07:00"," ","8.5","","6.3","","86","","32","","7","","24.1","","100.62","","","","","","Mainly Clear"
"2003-09-11 08:00","2003","09","11","08:00"," ","10.4","","7.0","","79","","34","","11","","24.1","","100.68","","","","","","Mainly Clear"
"2003-09-11 09:00","2003","09","11","09:00"," ","12.7","","7.5","","71","","1","","15","","24.1","","100.71","","","","","","Mainly Clear"
"2003-09-11 10:00","2003","09","11","10:00"," ","13.7","","6.4","","61","","36","","17","","24.1","","100.75","","","","","","Mainly Clear"
"2003-09-11 11:00","2003","09","11","11:00"," ","15.6","","5.9","","52","","34","","20","","24.1","","100.77","","","","","","Mainly Clear"
"2003-09-11 12:00","2003","09","11","12:00"," ","15.0","","5.1","","52","","34","","19","","24.1","","100.79","","","","","","Mainly Clear"
"2003-09-11 13:00","2003","09","11","13:00"," ","15.6","","4.0","","46","","35","","19","","24.1","","100.79","","","","","","Mainly Clear"
"2003-09-11 14:00","2003","09","11","14:00"," ","16.0","","4.2","","45","","35","","19","","24.1","","100.80","","","","","","Mainly Clear"
"2003-09-11 15:00","2003","09","11","15:00"," ","16.1","","3.8","","44","","34","","22","","24.1","","100.80","","","","","","Mainly Clear"
"2003-09-11 16:00","2003","09","11","16:00"," ","16.0","","4.1","","45","","36","","19","","24.1","","100.84","","","","","","Mainly Clear"
"2003-09-11 17:00","2003","09","11","17:00"," ","15.6","","4.9","","49","","34","","11","","24.1","","100.88","","","","","","Mainly Clear"
"2003-09-11 18:00","2003","09","11","18:00"," ","14.4","","4.4","","51","","36","","13","","24.1","","100.92","","","","","","Mainly Clear"
"2003-09-11 19:00","2003","09","11","19:00"," ","12.3","","4.4","","58","","36","","9","","24.1","","100.97","","","","","","Mainly Clear"
"2003-09-11 20:00","2003","09","11","20:00"," ","10.9","","4.4","","64","","36","","7","","24.1","","101.01","","","","","","Mainly Clear"
"2003-09-11 21:00","2003","09","11","21:00"," ","10.6","","4.3","","65","","36","","4","","24.1","","101.10","","","","","","Mainly Clear"
"2003-09-11 22:00","2003","09","11","22:00"," ","9.2","","4.1","","70","","","","0","","24.1","","101.12","","","","","","Clear"
"2003-09-11 23:00","2003","09","11","23:00"," ","8.4","","4.2","","75","","","","0","","24.1","","101.11","","","","","","Clear"
"2003-09-12 00:00","2003","09","12","00:00"," ","7.8","","4.1","","77","","","","0","","24.1","","101.09","","","","","","Clear"
"2003-09-12 01:00","2003","09","12","01:00"," ","7.8","","4.0","","77","","","","0","","24.1","","101.08","","","","","","Clear"
"2003-09-12 02:00","2003","09","12","02:00"," ","7.3","","3.6","","77","","22","","7","","24.1","","101.08","","","","","","Clear"
"2003-09-12 03:00","2003","09","12","03:00"," ","7.5","","3.8","","77","","28","","6","","24.1","","101.10","","","","","","Clear"
"2003-09-12 04:00","2003","09","12","04:00"," ","8.7","","3.3","","69","","27","","7","","24.1","","101.09","","","","","","Clear"
"2003-09-12 05:00","2003","09","12","05:00"," ","9.1","","1.6","","59","","25","","9","","24.1","","101.09","","","","","","Clear"
"2003-09-12 06:00","2003","09","12","06:00"," ","9.1","","1.6","","59","","24","","7","","24.1","","101.13","","","","","","Clear"
"2003-09-12 07:00","2003","09","12","07:00"," ","8.9","","2.9","","66","","22","","4","","24.1","","101.20","","","","","","Clear"
"2003-09-12 08:00","2003","09","12","08:00"," ","12.6","","2.4","","50","","25","","9","","24.1","","101.24","","","","","","Clear"
"2003-09-12 09:00","2003","09","12","09:00"," ","13.9","","4.3","","52","","24","","17","","24.1","","101.23","","","","","","Clear"
"2003-09-12 10:00","2003","09","12","10:00"," ","16.2","","5.7","","50","","25","","17","","24.1","","101.24","","","","","","Clear"
"2003-09-12 11:00","2003","09","12","11:00"," ","18.5","","6.4","","45","","29","","15","","24.1","","101.21","","","","","","Clear"
"2003-09-12 12:00","2003","09","12","12:00"," ","19.7","","7.4","","45","","30","","11","","24.1","","101.13","","","","","","Clear"
"2003-09-12 13:00","2003","09","12","13:00"," ","21.2","","8.1","","43","","31","","19","","24.1","","101.10","","","","","","Clear"
"2003-09-12 14:00","2003","09","12","14:00"," ","21.9","","7.1","","38","","27","","13","","24.1","","101.02","","","","","","Clear"
"2003-09-12 15:00","2003","09","12","15:00"," ","22.2","","7.1","","38","","29","","17","","24.1","","100.99","","","","","","Clear"
"2003-09-12 16:00","2003","09","12","16:00"," ","22.2","","7.7","","39","","31","","13","","24.1","","100.94","","","","","","Clear"
"2003-09-12 17:00","2003","09","12","17:00"," ","21.8","","8.4","","42","","30","","11","","24.1","","100.92","","","","","","Mostly Cloudy"
"2003-09-12 18:00","2003","09","12","18:00"," ","19.9","","9.8","","52","","29","","7","","24.1","","100.92","","","","","","Mostly Cloudy"
"2003-09-12 19:00","2003","09","12","19:00"," ","17.0","","9.8","","63","","23","","11","","24.1","","100.97","","","","","","Mainly Clear"
"2003-09-12 20:00","2003","09","12","20:00"," ","15.0","","9.2","","68","","22","","11","","24.1","","100.96","","","","","","Mainly Clear"
"2003-09-12 21:00","2003","09","12","21:00"," ","13.8","","8.6","","71","","31","","4","","24.1","","100.96","","","","","","Mainly Clear"
"2003-09-12 22:00","2003","09","12","22:00"," ","13.5","","8.5","","72","","27","","7","","24.1","","100.96","","","","","","Mainly Clear"
"2003-09-12 23:00","2003","09","12","23:00"," ","13.7","","7.9","","68","","28","","9","","24.1","","100.97","","","","","","Mainly Clear"
"2003-09-13 00:00","2003","09","13","00:00"," ","12.8","","7.3","","69","","28","","9","","24.1","","101.00","","","","","","Mainly Clear"
"2003-09-13 01:00","2003","09","13","01:00"," ","12.6","","6.2","","65","","29","","15","","24.1","","100.98","","","","","","Mainly Clear"
"2003-09-13 02:00","2003","09","13","02:00"," ","12.5","","5.6","","63","","29","","13","","24.1","","100.97","","","","","","Mainly Clear"
"2003-09-13 03:00","2003","09","13","03:00"," ","12.0","","5.3","","64","","30","","9","","24.1","","100.97","","","","","","Clear"
"2003-09-13 04:00","2003","09","13","04:00"," ","12.1","","5.2","","63","","30","","11","","24.1","","100.95","","","","","","Clear"
"2003-09-13 05:00","2003","09","13","05:00"," ","11.4","","4.4","","62","","27","","7","","24.1","","100.98","","","","","","Clear"
"2003-09-13 06:00","2003","09","13","06:00"," ","11.9","","3.8","","58","","31","","9","","32.2","","100.99","","","","","","Clear"
"2003-09-13 07:00","2003","09","13","07:00"," ","13.2","","4.9","","57","","31","","13","","32.2","","101.00","","","","","","Clear"
"2003-09-13 08:00","2003","09","13","08:00"," ","15.5","","6.3","","54","","30","","9","","32.2","","101.01","","","","","","Clear"
"2003-09-13 09:00","2003","09","13","09:00"," ","16.9","","8.5","","58","","28","","13","","32.2","","101.03","","","","","","Clear"
"2003-09-13 10:00","2003","09","13","10:00"," ","20.0","","10.9","","56","","29","","13","","32.2","","101.01","","","","","","Clear"
"2003-09-13 11:00","2003","09","13","11:00"," ","22.5","","11.5","","50","","29","","19","","32.2","","100.97","","25","","","","Mainly Clear"
"2003-09-13 12:00","2003","09","13","12:00"," ","23.2","","12.0","","49","","27","","15","","32.2","","100.98","","25","","","","Mainly Clear"
"2003-09-13 13:00","2003","09","13","13:00"," ","24.5","","12.9","","48","","32","","19","","32.2","","100.94","","27","","","","Clear"
"2003-09-13 14:00","2003","09","13","14:00"," ","24.8","","12.7","","47","","29","","17","","32.2","","100.87","","27","","","","Clear"
"2003-09-13 15:00","2003","09","13","15:00"," ","24.8","","11.5","","43","","31","","15","","32.2","","100.88","","27","","","","Clear"
"2003-09-13 16:00","2003","09","13","16:00"," ","25.1","","11.6","","43","","32","","9","","32.2","","100.86","","27","","","","Clear"
"2003-09-13 17:00","2003","09","13","17:00"," ","24.4","","11.3","","44","","32","","9","","32.2","","100.87","","26","","","","Clear"
"2003-09-13 18:00","2003","09","13","18:00"," ","23.1","","11.1","","47","","32","","6","","32.2","","100.92","","25","","","","Clear"
"2003-09-13 19:00","2003","09","13","19:00"," ","19.5","","9.9","","54","","32","","9","","32.2","","100.94","","","","","","Mainly Clear"
"2003-09-13 20:00","2003","09","13","20:00"," ","18.4","","11.6","","65","","23","","4","","32.2","","100.98","","","","","","Clear"
"2003-09-13 21:00","2003","09","13","21:00"," ","16.3","","8.3","","59","","36","","6","","32.2","","100.99","","","","","","Clear"
"2003-09-13 22:00","2003","09","13","22:00"," ","14.6","","7.2","","61","","34","","9","","24.1","","100.99","","","","","","Clear"
"2003-09-13 23:00","2003","09","13","23:00"," ","13.8","","6.1","","60","","34","","9","","24.1","","100.99","","","","","","Clear"
"2003-09-14 00:00","2003","09","14","00:00"," ","13.7","","4.9","","55","","32","","9","","24.1","","100.98","","","","","","Clear"
"2003-09-14 01:00","2003","09","14","01:00"," ","12.1","","5.0","","62","","34","","9","","24.1","","100.99","","","","","","Clear"
"2003-09-14 02:00","2003","09","14","02:00"," ","12.6","","4.6","","58","","34","","11","","24.1","","100.97","","","","","","Clear"
"2003-09-14 03:00","2003","09","14","03:00"," ","12.7","","7.3","","70","","34","","9","","24.1","","100.96","","","","","","Mainly Clear"
"2003-09-14 04:00","2003","09","14","04:00"," ","11.9","","7.9","","76","","35","","7","","24.1","","100.92","","","","","","Mainly Clear"
"2003-09-14 05:00","2003","09","14","05:00"," ","11.7","","8.7","","82","","35","","9","","24.1","","100.93","","","","","","Mainly Clear"
"2003-09-14 06:00","2003","09","14","06:00"," ","11.8","","9.0","","83","","31","","9","","24.1","","100.97","","","","","","Mainly Clear"
"2003-09-14 07:00","2003","09","14","07:00"," ","13.1","","10.1","","82","","32","","11","","24.1","","100.99","","","","","","Mainly Clear"
"2003-09-14 08:00","2003","09","14","08:00"," ","14.5","","10.9","","79","","32","","9","","24.1","","101.00","","","","","","Mainly Clear"
"2003-09-14 09:00","2003","09","14","09:00"," ","17.6","","12.5","","72","","32","","7","","24.1","","101.01","","","","","","Mainly Clear"
"2003-09-14 10:00","2003","09","14","10:00"," ","19.5","","13.4","","68","","27","","6","","24.1","","100.97","","","","","","Mainly Clear"
"2003-09-14 11:00","2003","09","14","11:00"," ","21.9","","14.1","","61","","31","","11","","24.1","","100.93","","25","","","","Mainly Clear"
"2003-09-14 12:00","2003","09","14","12:00"," ","23.5","","14.0","","55","","34","","11","","24.1","","100.91","","27","","","","Mainly Clear"
"2003-09-14 13:00","2003","09","14","13:00"," ","24.7","","14.4","","53","","28","","4","","24.1","","100.87","","28","","","","Mainly Clear"
"2003-09-14 14:00","2003","09","14","14:00"," ","25.0","","14.6","","52","","30","","9","","24.1","","100.82","","29","","","","Mainly Clear"
"2003-09-14 15:00","2003","09","14","15:00"," ","25.8","","13.8","","47","","34","","7","","24.1","","100.77","","29","","","","Mainly Clear"
"2003-09-14 16:00","2003","09","14","16:00"," ","25.7","","13.5","","47","","34","","11","","24.1","","100.74","","29","","","","Mainly Clear"
"2003-09-14 17:00","2003","09","14","17:00"," ","24.9","","13.5","","49","","33","","9","","24.1","","100.72","","28","","","","Mainly Clear"
"2003-09-14 18:00","2003","09","14","18:00"," ","23.7","","14.3","","56","","33","","6","","24.1","","100.73","","27","","","","Mainly Clear"
"2003-09-14 19:00","2003","09","14","19:00"," ","20.3","","15.0","","72","","36","","11","","24.1","","100.78","","","","","","Mainly Clear"
"2003-09-14 20:00","2003","09","14","20:00"," ","18.2","","14.2","","77","","1","","6","","24.1","","100.81","","","","","","Mainly Clear"
"2003-09-14 21:00","2003","09","14","21:00"," ","17.0","","13.4","","79","","2","","6","","24.1","","100.82","","","","","","Mainly Clear"
"2003-09-14 22:00","2003","09","14","22:00"," ","16.0","","12.7","","81","","1","","6","","24.1","","100.79","","","","","","Mainly Clear"
"2003-09-14 23:00","2003","09","14","23:00"," ","16.0","","12.6","","80","","34","","4","","24.1","","100.75","","","","","","Mainly Clear"
"2003-09-15 00:00","2003","09","15","00:00"," ","15.4","","12.8","","84","","30","","11","","24.1","","100.73","","","","","","Clear"
"2003-09-15 01:00","2003","09","15","01:00"," ","16.2","","14.0","","87","","30","","9","","19.3","","100.71","","","","","","Clear"
"2003-09-15 02:00","2003","09","15","02:00"," ","15.6","","13.9","","90","","31","","7","","19.3","","100.68","","","","","","Clear"
"2003-09-15 03:00","2003","09","15","03:00"," ","15.3","","14.0","","92","","32","","6","","19.3","","100.66","","","","","","Clear"
"2003-09-15 04:00","2003","09","15","04:00"," ","14.7","","13.4","","92","","35","","9","","0.2","","100.62","","","","","","Fog"
"2003-09-15 05:00","2003","09","15","05:00"," ","15.4","","14.1","","92","","32","","9","","0.4","","100.62","","","","","","Fog"
"2003-09-15 06:00","2003","09","15","06:00"," ","15.7","","14.4","","92","","30","","9","","0.4","","100.63","","","","","","Fog"
"2003-09-15 07:00","2003","09","15","07:00"," ","15.9","","14.7","","93","","30","","11","","0.4","","100.64","","","","","","Fog"
"2003-09-15 08:00","2003","09","15","08:00"," ","16.2","","14.9","","92","","29","","11","","0.4","","100.65","","","","","","Fog"
"2003-09-15 09:00","2003","09","15","09:00"," ","17.2","","15.8","","91","","31","","6","","0.8","","100.65","","","","","","Fog"
"2003-09-15 10:00","2003","09","15","10:00"," ","19.4","","17.3","","88","","35","","4","","8.0","","100.61","","","","","","Fog"
"2003-09-15 11:00","2003","09","15","11:00"," ","23.0","","18.6","","76","","31","","7","","24.1","","100.57","","29","","","","Mainly Clear"
"2003-09-15 12:00","2003","09","15","12:00"," ","24.5","","18.8","","71","","32","","4","","24.1","","100.54","","31","","","","Mainly Clear"
"2003-09-15 13:00","2003","09","15","13:00"," ","26.1","","18.6","","63","","","","0","","24.1","","100.52","","33","","","","Mainly Clear"
"2003-09-15 14:00","2003","09","15","14:00"," ","27.1","","18.4","","59","","25","","9","","24.1","","100.47","","33","","","","Mainly Clear"
"2003-09-15 15:00","2003","09","15","15:00"," ","27.1","","18.4","","59","","","","0","","24.1","","100.45","","33","","","","Mostly Cloudy"
"2003-09-15 16:00","2003","09","15","16:00"," ","26.1","","18.4","","63","","21","","19","","24.1","","100.41","","32","","","","Mostly Cloudy"
"2003-09-15 17:00","2003","09","15","17:00"," ","25.4","","18.2","","64","","22","","17","","24.1","","100.36","","32","","","","Mainly Clear"
"2003-09-15 18:00","2003","09","15","18:00"," ","23.6","","18.0","","71","","21","","13","","24.1","","100.34","","30","","","","Mainly Clear"
"2003-09-15 19:00","2003","09","15","19:00"," ","21.8","","17.4","","76","","22","","7","","24.1","","100.38","","27","","","","Mainly Clear"
"2003-09-15 20:00","2003","09","15","20:00"," ","20.8","","17.2","","80","","","","0","","24.1","","100.40","","26","","","","Mainly Clear"
"2003-09-15 21:00","2003","09","15","21:00"," ","19.6","","17.2","","86","","36","","4","","24.1","","100.38","","","","","","Mainly Clear"
"2003-09-15 22:00","2003","09","15","22:00"," ","18.4","","16.1","","86","","34","","4","","24.1","","100.38","","","","","","Mostly Cloudy"
"2003-09-15 23:00","2003","09","15","23:00"," ","17.8","","15.5","","86","","","","0","","24.1","","100.37","","","","","","Mainly Clear"
"2003-09-16 00:00","2003","09","16","00:00"," ","17.5","","15.0","","85","","","","0","","24.1","","100.34","","","","","","Mainly Clear"
"2003-09-16 01:00","2003","09","16","01:00"," ","17.7","","15.2","","85","","29","","7","","24.1","","100.37","","","","","","Mainly Clear"
"2003-09-16 02:00","2003","09","16","02:00"," ","18.2","","15.3","","83","","31","","9","","24.1","","100.36","","","","","","Mostly Cloudy"
"2003-09-16 03:00","2003","09","16","03:00"," ","17.8","","15.2","","85","","20","","6","","24.1","","100.37","","","","","","Mainly Clear"
"2003-09-16 04:00","2003","09","16","04:00"," ","17.0","","14.7","","86","","24","","7","","24.1","","100.38","","","","","","Mainly Clear"
"2003-09-16 05:00","2003","09","16","05:00"," ","16.6","","14.3","","86","","27","","9","","24.1","","100.35","","","","","","Mainly Clear"
"2003-09-16 06:00","2003","09","16","06:00"," ","17.1","","14.6","","85","","25","","9","","32.2","","100.39","","","","","","Mainly Clear"
"2003-09-16 07:00","2003","09","16","07:00"," ","17.5","","15.0","","85","","26","","7","","32.2","","100.40","","","","","","Mainly Clear"
"2003-09-16 08:00","2003","09","16","08:00"," ","18.7","","15.4","","81","","26","","6","","32.2","","100.43","","","","","","Mostly Cloudy"
"2003-09-16 09:00","2003","09","16","09:00"," ","20.7","","15.9","","74","","26","","9","","32.2","","100.43","","25","","","","Mainly Clear"
"2003-09-16 10:00","2003","09","16","10:00"," ","22.5","","16.7","","70","","26","","7","","32.2","","100.43","","28","","","","Mainly Clear"
"2003-09-16 11:00","2003","09","16","11:00"," ","23.8","","16.8","","65","","20","","15","","32.2","","100.41","","29","","","","Mostly Cloudy"
"2003-09-16 12:00","2003","09","16","12:00"," ","23.9","","15.8","","61","","23","","20","","32.2","","100.39","","28","","","","Mostly Cloudy"
"2003-09-16 13:00","2003","09","16","13:00"," ","24.8","","16.3","","59","","22","","22","","32.2","","100.35","","30","","","","Mostly Cloudy"
"2003-09-16 14:00","2003","09","16","14:00"," ","24.5","","15.7","","58","","23","","24","","24.1","","100.33","","29","","","","Mostly Cloudy"
"2003-09-16 15:00","2003","09","16","15:00"," ","24.2","","15.0","","56","","20","","20","","24.1","","100.30","","28","","","","Mostly Cloudy"
"2003-09-16 16:00","2003","09","16","16:00"," ","23.4","","15.4","","61","","20","","20","","24.1","","100.28","","28","","","","Mostly Cloudy"
"2003-09-16 17:00","2003","09","16","17:00"," ","22.2","","14.9","","63","","19","","15","","24.1","","100.28","","26","","","","Mostly Cloudy"
"2003-09-16 18:00","2003","09","16","18:00"," ","20.7","","15.4","","72","","19","","15","","24.1","","100.30","","25","","","","Mostly Cloudy"
"2003-09-16 19:00","2003","09","16","19:00"," ","20.3","","16.7","","80","","20","","13","","24.1","","100.33","","25","","","","Mostly Cloudy"
"2003-09-16 20:00","2003","09","16","20:00"," ","20.0","","16.9","","82","","18","","11","","19.3","","100.32","","25","","","","Cloudy"
"2003-09-16 21:00","2003","09","16","21:00"," ","19.5","","17.0","","85","","19","","11","","16.1","","100.31","","","","","","Cloudy"
"2003-09-16 22:00","2003","09","16","22:00"," ","19.3","","17.0","","87","","18","","13","","6.4","","100.29","","","","","","Fog"
"2003-09-16 23:00","2003","09","16","23:00"," ","18.6","","17.1","","91","","17","","15","","0.8","","100.28","","","","","","Fog"
"2003-09-17 00:00","2003","09","17","00:00"," ","18.6","","17.2","","92","","16","","15","","0.8","","100.25","","","","","","Fog"
"2003-09-17 01:00","2003","09","17","01:00"," ","19.3","","17.9","","92","","16","","11","","1.2","","100.24","","","","","","Fog"
"2003-09-17 02:00","2003","09","17","02:00"," ","20.0","","18.1","","89","","20","","20","","3.2","","100.22","","26","","","","Fog"
"2003-09-17 03:00","2003","09","17","03:00"," ","20.0","","18.2","","89","","19","","17","","2.4","","100.22","","26","","","","Rain Showers,Fog"
"2003-09-17 04:00","2003","09","17","04:00"," ","19.8","","18.2","","90","","20","","19","","2.4","","100.23","","","","","","Rain Showers,Fog"
"2003-09-17 05:00","2003","09","17","05:00"," ","19.5","","17.9","","90","","21","","19","","2.4","","100.24","","","","","","Fog"
"2003-09-17 06:00","2003","09","17","06:00"," ","19.1","","17.6","","91","","22","","13","","0.8","","100.31","","","","","","Fog"
"2003-09-17 07:00","2003","09","17","07:00"," ","19.1","","17.7","","92","","24","","11","","1.6","","100.35","","","","","","Fog"
"2003-09-17 08:00","2003","09","17","08:00"," ","19.6","","17.9","","90","","27","","9","","12.9","","100.39","","","","","","Cloudy"
"2003-09-17 09:00","2003","09","17","09:00"," ","20.4","","18.0","","86","","30","","15","","24.1","","100.46","","26","","","","Mostly Cloudy"
"2003-09-17 10:00","2003","09","17","10:00"," ","21.0","","16.8","","77","","31","","17","","32.2","","100.49","","26","","","","Mostly Cloudy"
"2003-09-17 11:00","2003","09","17","11:00"," ","21.0","","16.0","","73","","30","","15","","32.2","","100.51","","26","","","","Mainly Clear"
"2003-09-17 12:00","2003","09","17","12:00"," ","22.2","","14.2","","60","","28","","15","","32.2","","100.50","","26","","","","Mainly Clear"
"2003-09-17 13:00","2003","09","17","13:00"," ","22.9","","12.1","","51","","29","","11","","32.2","","100.51","","25","","","","Mainly Clear"
"2003-09-17 14:00","2003","09","17","14:00"," ","23.9","","11.5","","46","","31","","19","","32.2","","100.49","","26","","","","Mainly Clear"
"2003-09-17 15:00","2003","09","17","15:00"," ","23.9","","10.1","","42","","31","","11","","32.2","","100.49","","25","","","","Mostly Cloudy"
"2003-09-17 16:00","2003","09","17","16:00"," ","23.9","","9.7","","41","","29","","15","","32.2","","100.53","","25","","","","Mainly Clear"
"2003-09-17 17:00","2003","09","17","17:00"," ","22.8","","9.3","","42","","29","","13","","32.2","","100.58","","","","","","Mainly Clear"
"2003-09-17 18:00","2003","09","17","18:00"," ","20.8","","10.2","","51","","31","","9","","32.2","","100.63","","","","","","Mainly Clear"
"2003-09-17 19:00","2003","09","17","19:00"," ","17.8","","10.9","","64","","29","","9","","32.2","","100.71","","","","","","Mainly Clear"
"2003-09-17 20:00","2003","09","17","20:00"," ","16.2","","11.0","","71","","33","","6","","32.2","","100.80","","","","","","Mainly Clear"
"2003-09-17 21:00","2003","09","17","21:00"," ","15.8","","11.0","","73","","32","","7","","32.2","","100.87","","","","","","Mainly Clear"
"2003-09-17 22:00","2003","09","17","22:00"," ","14.2","","10.8","","80","","32","","13","","32.2","","100.91","","","","","","Clear"
"2003-09-17 23:00","2003","09","17","23:00"," ","13.7","","10.5","","81","","31","","9","","32.2","","100.97","","","","","","Clear"
"2003-09-18 00:00","2003","09","18","00:00"," ","13.3","","10.4","","83","","33","","6","","32.2","","101.01","","","","","","Clear"
"2003-09-18 01:00","2003","09","18","01:00"," ","13.1","","10.4","","84","","34","","9","","32.2","","101.03","","","","","","Clear"
"2003-09-18 02:00","2003","09","18","02:00"," ","12.8","","10.1","","84","","36","","4","","32.2","","101.05","","","","","","Clear"
"2003-09-18 03:00","2003","09","18","03:00"," ","12.3","","9.8","","85","","35","","7","","32.2","","101.08","","","","","","Clear"
"2003-09-18 04:00","2003","09","18","04:00"," ","11.9","","9.3","","84","","33","","6","","32.2","","101.12","","","","","","Clear"
"2003-09-18 05:00","2003","09","18","05:00"," ","10.7","","8.7","","87","","32","","7","","32.2","","101.18","","","","","","Clear"
"2003-09-18 06:00","2003","09","18","06:00"," ","11.2","","9.3","","88","","32","","4","","32.2","","101.22","","","","","","Mainly Clear"
"2003-09-18 07:00","2003","09","18","07:00"," ","12.8","","10.1","","84","","32","","6","","32.2","","101.30","","","","","","Mainly Clear"
"2003-09-18 08:00","2003","09","18","08:00"," ","14.1","","10.2","","77","","34","","9","","32.2","","101.40","","","","","","Mainly Clear"
"2003-09-18 09:00","2003","09","18","09:00"," ","15.6","","10.5","","72","","1","","7","","32.2","","101.47","","","","","","Mainly Clear"
"2003-09-18 10:00","2003","09","18","10:00"," ","22.0","","12.3","","54","","34","","11","","32.2","","101.47","","","","","","Mainly Clear"
"2003-09-18 11:00","2003","09","18","11:00"," ","20.4","","9.6","","50","","36","","7","","32.2","","101.43","","","","","","Mainly Clear"
"2003-09-18 12:00","2003","09","18","12:00"," ","20.1","","9.2","","49","","2","","15","","32.2","","101.41","","","","","","Mainly Clear"
"2003-09-18 13:00","2003","09","18","13:00"," ","21.4","","9.8","","48","","36","","11","","32.2","","101.37","","","","","","Mainly Clear"
"2003-09-18 14:00","2003","09","18","14:00"," ","24.1","","9.0","","38","","31","","11","","32.2","","101.34","","25","","","","Mainly Clear"
"2003-09-18 15:00","2003","09","18","15:00"," ","22.2","","7.0","","37","","36","","13","","32.2","","101.33","","","","","","Mainly Clear"
"2003-09-18 16:00","2003","09","18","16:00"," ","22.6","","7.9","","39","","2","","7","","32.2","","101.33","","","","","","Mostly Cloudy"
"2003-09-18 17:00","2003","09","18","17:00"," ","21.6","","7.7","","41","","34","","9","","32.2","","101.32","","","","","","Mostly Cloudy"
"2003-09-18 18:00","2003","09","18","18:00"," ","19.3","","9.7","","54","","32","","7","","32.2","","101.33","","","","","","Mostly Cloudy"
"2003-09-18 19:00","2003","09","18","19:00"," ","16.6","","10.3","","66","","27","","7","","24.1","","101.35","","","","","","Mostly Cloudy"
"2003-09-18 20:00","2003","09","18","20:00"," ","15.3","","10.4","","73","","28","","6","","24.1","","101.37","","","","","","Clear"
"2003-09-18 21:00","2003","09","18","21:00"," ","15.1","","9.9","","71","","","","0","","24.1","","101.36","","","","","","Clear"
"2003-09-18 22:00","2003","09","18","22:00"," ","14.8","","9.7","","71","","36","","4","","32.2","","101.37","","","","","","Clear"
"2003-09-18 23:00","2003","09","18","23:00"," ","15.1","","9.0","","67","","36","","7","","32.2","","101.35","","","","","","Clear"
"2003-09-19 00:00","2003","09","19","00:00"," ","14.4","","9.3","","71","","35","","4","","32.2","","101.36","","","","","","Mainly Clear"
"2003-09-19 01:00","2003","09","19","01:00"," ","13.5","","9.1","","75","","27","","6","","32.2","","101.36","","","","","","Mainly Clear"
"2003-09-19 02:00","2003","09","19","02:00"," ","13.8","","9.0","","73","","32","","6","","32.2","","101.36","","","","","","Mainly Clear"
"2003-09-19 03:00","2003","09","19","03:00"," ","13.2","","8.9","","75","","36","","4","","32.2","","101.34","","","","","","Mainly Clear"
"2003-09-19 04:00","2003","09","19","04:00"," ","14.0","","8.5","","69","","35","","6","","32.2","","101.33","","","","","","Mostly Cloudy"
"2003-09-19 05:00","2003","09","19","05:00"," ","13.5","","8.8","","73","","1","","4","","32.2","","101.32","","","","","","Mostly Cloudy"
"2003-09-19 06:00","2003","09","19","06:00"," ","12.6","","8.6","","77","","","","0","","32.2","","101.36","","","","","","Mostly Cloudy"
"2003-09-19 07:00","2003","09","19","07:00"," ","13.5","","9.1","","75","","33","","4","","24.1","","101.38","","","","","","Mostly Cloudy"
"2003-09-19 08:00","2003","09","19","08:00"," ","16.4","","9.4","","63","","33","","4","","24.1","","101.41","","","","","","Mostly Cloudy"
"2003-09-19 09:00","2003","09","19","09:00"," ","18.6","","10.5","","59","","35","","6","","24.1","","101.43","","","","","","Mostly Cloudy"
"2003-09-19 10:00","2003","09","19","10:00"," ","20.7","","12.6","","60","","31","","6","","24.1","","101.36","","","","","","Mostly Cloudy"
"2003-09-19 11:00","2003","09","19","11:00"," ","22.6","","12.1","","51","","30","","7","","24.1","","101.42","","25","","","","Mostly Cloudy"
"2003-09-19 12:00","2003","09","19","12:00"," ","24.0","","13.0","","50","","12","","4","","24.1","","101.29","","27","","","","Mostly Cloudy"
"2003-09-19 13:00","2003","09","19","13:00"," ","25.2","","11.5","","42","","23","","6","","24.1","","101.23","","27","","","","Mostly Cloudy"
"2003-09-19 14:00","2003","09","19","14:00"," ","25.3","","11.1","","41","","21","","9","","24.1","","101.21","","27","","","","Mostly Cloudy"
"2003-09-19 15:00","2003","09","19","15:00"," ","25.2","","9.9","","38","","18","","15","","24.1","","101.18","","26","","","","Mostly Cloudy"
"2003-09-19 16:00","2003","09","19","16:00"," ","24.1","","10.0","","41","","17","","11","","24.1","","101.15","","25","","","","Mostly Cloudy"
"2003-09-19 17:00","2003","09","19","17:00"," ","22.9","","10.4","","45","","17","","9","","24.1","","101.12","","","","","","Mostly Cloudy"
"2003-09-19 18:00","2003","09","19","18:00"," ","20.6","","11.6","","56","","16","","9","","24.1","","101.09","","","","","","Mostly Cloudy"
"2003-09-19 19:00","2003","09","19","19:00"," ","19.0","","10.9","","59","","20","","7","","24.1","","101.09","","","","","","Mostly Cloudy"
"2003-09-19 20:00","2003","09","19","20:00"," ","17.9","","11.6","","67","","21","","6","","24.1","","101.08","","","","","","Mostly Cloudy"
"2003-09-19 21:00","2003","09","19","21:00"," ","17.4","","12.2","","72","","20","","7","","24.1","","101.05","","","","","","Mostly Cloudy"
"2003-09-19 22:00","2003","09","19","22:00"," ","18.0","","11.3","","65","","23","","6","","24.1","","101.03","","","","","","Mostly Cloudy"
"2003-09-19 23:00","2003","09","19","23:00"," ","18.0","","7.5","","50","","24","","4","","24.1","","100.99","","","","","","Mostly Cloudy"
"2003-09-20 00:00","2003","09","20","00:00"," ","14.6","","8.0","","65","","","","0","","24.1","","100.94","","","","","","Mostly Cloudy"
"2003-09-20 01:00","2003","09","20","01:00"," ","12.7","","8.4","","75","","","","0","","24.1","","100.88","","","","","","Mainly Clear"
"2003-09-20 02:00","2003","09","20","02:00"," ","12.9","","9.0","","77","","26","","4","","24.1","","100.85","","","","","","Mainly Clear"
"2003-09-20 03:00","2003","09","20","03:00"," ","12.5","","8.2","","75","","","","0","","24.1","","100.81","","","","","","Clear"
"2003-09-20 04:00","2003","09","20","04:00"," ","12.1","","7.7","","74","","7","","4","","24.1","","100.78","","","","","","Clear"
"2003-09-20 05:00","2003","09","20","05:00"," ","13.4","","5.9","","60","","","","0","","24.1","","100.78","","","","","","Mainly Clear"
"2003-09-20 06:00","2003","09","20","06:00"," ","11.9","","8.3","","79","","19","","7","","32.2","","100.79","","","","","","Mainly Clear"
"2003-09-20 07:00","2003","09","20","07:00"," ","14.6","","6.3","","57","","19","","6","","32.2","","100.82","","","","","","Mostly Cloudy"
"2003-09-20 08:00","2003","09","20","08:00"," ","17.1","","9.2","","60","","18","","6","","32.2","","100.79","","","","","","Mostly Cloudy"
"2003-09-20 09:00","2003","09","20","09:00"," ","18.8","","10.7","","59","","20","","6","","32.2","","100.78","","","","","","Mostly Cloudy"
"2003-09-20 10:00","2003","09","20","10:00"," ","21.1","","7.3","","41","","15","","13","","32.2","","100.75","","","","","","Mostly Cloudy"
"2003-09-20 11:00","2003","09","20","11:00"," ","21.8","","9.6","","46","","17","","7","","32.2","","100.73","","","","","","Mostly Cloudy"
"2003-09-20 12:00","2003","09","20","12:00"," ","22.6","","9.1","","42","","17","","13","","32.2","","100.64","","","","","","Mostly Cloudy"
"2003-09-20 13:00","2003","09","20","13:00"," ","24.3","","9.8","","40","","19","","15","","32.2","","100.58","","25","","","","Mostly Cloudy"
"2003-09-20 14:00","2003","09","20","14:00"," ","24.2","","7.4","","34","","20","","17","","32.2","","100.51","","","","","","Mostly Cloudy"
"2003-09-20 15:00","2003","09","20","15:00"," ","22.9","","5.8","","33","","19","","13","","32.2","","100.51","","","","","","Mostly Cloudy"
"2003-09-20 16:00","2003","09","20","16:00"," ","22.0","","11.2","","50","","21","","11","","32.2","","100.51","","","","","","Mostly Cloudy"
"2003-09-20 17:00","2003","09","20","17:00"," ","20.2","","13.4","","65","","18","","11","","32.2","","100.50","","","","","","Mostly Cloudy"
"2003-09-20 18:00","2003","09","20","18:00"," ","18.7","","14.6","","77","","15","","7","","32.2","","100.47","","","","","","Cloudy"
"2003-09-20 19:00","2003","09","20","19:00"," ","17.7","","15.4","","86","","15","","11","","24.1","","100.49","","","","","","Cloudy"
"2003-09-20 20:00","2003","09","20","20:00"," ","17.2","","15.4","","89","","14","","11","","24.1","","100.51","","","","","","Cloudy"
"2003-09-20 21:00","2003","09","20","21:00"," ","16.7","","15.2","","91","","16","","9","","24.1","","100.51","","","","","","Cloudy"
"2003-09-20 22:00","2003","09","20","22:00"," ","16.5","","15.3","","93","","17","","9","","24.1","","100.53","","","","","","Cloudy"
"2003-09-20 23:00","2003","09","20","23:00"," ","15.9","","14.7","","93","","16","","13","","9.7","","100.51","","","","","","Rain Showers,Fog"
"2003-09-21 00:00","2003","09","21","00:00"," ","16.4","","15.9","","97","","15","","15","","24.1","","100.47","","","","","","Cloudy"
"2003-09-21 01:00","2003","09","21","01:00"," ","16.4","","15.3","","93","","15","","15","","24.1","","100.45","","","","","","Cloudy"
"2003-09-21 02:00","2003","09","21","02:00"," ","16.4","","14.9","","91","","16","","15","","24.1","","100.41","","","","","","Cloudy"
"2003-09-21 03:00","2003","09","21","03:00"," ","16.6","","14.6","","88","","17","","13","","24.1","","100.41","","","","","","Cloudy"
"2003-09-21 04:00","2003","09","21","04:00"," ","16.6","","15.2","","91","","18","","15","","24.1","","100.38","","","","","","Cloudy"
"2003-09-21 05:00","2003","09","21","05:00"," ","16.8","","15.8","","94","","18","","11","","24.1","","100.39","","","","","","Cloudy"
"2003-09-21 06:00","2003","09","21","06:00"," ","17.4","","16.5","","94","","21","","9","","19.3","","100.41","","","","","","Cloudy"
"2003-09-21 07:00","2003","09","21","07:00"," ","17.4","","17.2","","99","","23","","7","","1.2","","100.43","","","","","","Drizzle,Fog"
"2003-09-21 08:00","2003","09","21","08:00"," ","17.7","","17.7","","100","","19","","6","","0.6","","100.43","","","","","","Drizzle,Fog"
"2003-09-21 09:00","2003","09","21","09:00"," ","18.9","","18.1","","95","","22","","4","","4.8","","100.46","","","","","","Fog"
"2003-09-21 10:00","2003","09","21","10:00"," ","20.8","","18.4","","86","","18","","4","","16.1","","100.45","","27","","","","Mostly Cloudy"
"2003-09-21 11:00","2003","09","21","11:00"," ","21.1","","18.3","","84","","29","","7","","24.1","","100.44","","27","","","","Cloudy"
"2003-09-21 12:00","2003","09","21","12:00"," ","21.4","","18.1","","81","","28","","6","","24.1","","100.42","","27","","","","Cloudy"
"2003-09-21 13:00","2003","09","21","13:00"," ","21.7","","18.6","","83","","29","","6","","24.1","","100.40","","28","","","","Cloudy"
"2003-09-21 14:00","2003","09","21","14:00"," ","21.7","","18.7","","83","","32","","6","","24.1","","100.40","","28","","","","Mostly Cloudy"
"2003-09-21 15:00","2003","09","21","15:00"," ","21.9","","18.5","","81","","32","","7","","24.1","","100.39","","28","","","","Mostly Cloudy"
"2003-09-21 16:00","2003","09","21","16:00"," ","20.6","","18.3","","87","","1","","17","","19.3","","100.41","","27","","","","Mostly Cloudy"
"2003-09-21 17:00","2003","09","21","17:00"," ","19.8","","18.0","","89","","1","","9","","24.1","","100.45","","","","","","Mostly Cloudy"
"2003-09-21 18:00","2003","09","21","18:00"," ","19.6","","18.0","","90","","2","","9","","19.3","","100.47","","","","","","Mostly Cloudy"
"2003-09-21 19:00","2003","09","21","19:00"," ","18.9","","17.8","","93","","6","","7","","19.3","","100.50","","","","","","Mostly Cloudy"
"2003-09-21 20:00","2003","09","21","20:00"," ","18.9","","17.5","","92","","6","","4","","19.3","","100.56","","","","","","Mostly Cloudy"
"2003-09-21 21:00","2003","09","21","21:00"," ","18.1","","17.6","","97","","","","0","","19.3","","100.57","","","","","","Mostly Cloudy"
"2003-09-21 22:00","2003","09","21","22:00"," ","17.8","","17.5","","98","","3","","4","","8.0","","100.59","","","","","","Fog"
"2003-09-21 23:00","2003","09","21","23:00"," ","17.2","","17.2","","100","","2","","9","","1.6","","100.60","","","","","","Fog"
"2003-09-22 00:00","2003","09","22","00:00"," ","16.7","","16.7","","100","","4","","6","","1.2","","100.60","","","","","","Fog"
"2003-09-22 01:00","2003","09","22","01:00"," ","16.4","","16.4","","100","","3","","13","","1.2","","100.63","","","","","","Fog"
"2003-09-22 02:00","2003","09","22","02:00"," ","16.2","","16.2","","100","","4","","13","","1.2","","100.60","","","","","","Fog"
"2003-09-22 03:00","2003","09","22","03:00"," ","16.0","","16.0","","100","","3","","6","","1.6","","100.64","","","","","","Fog"
"2003-09-22 04:00","2003","09","22","04:00"," ","15.7","","15.7","","100","","4","","9","","1.6","","100.65","","","","","","Fog"
"2003-09-22 05:00","2003","09","22","05:00"," ","15.7","","15.7","","100","","3","","7","","1.6","","100.67","","","","","","Fog"
"2003-09-22 06:00","2003","09","22","06:00"," ","15.7","","15.7","","100","","4","","9","","1.6","","100.75","","","","","","Fog"
"2003-09-22 07:00","2003","09","22","07:00"," ","15.4","","15.3","","99","","1","","13","","2.0","","100.80","","","","","","Fog"
"2003-09-22 08:00","2003","09","22","08:00"," ","15.4","","14.7","","96","","4","","11","","19.3","","100.82","","","","","","Mainly Clear"
"2003-09-22 09:00","2003","09","22","09:00"," ","17.5","","13.1","","75","","6","","15","","24.1","","100.82","","","","","","Mostly Cloudy"
"2003-09-22 10:00","2003","09","22","10:00"," ","18.6","","12.6","","68","","4","","6","","24.1","","100.79","","","","","","Mainly Clear"
"2003-09-22 11:00","2003","09","22","11:00"," ","20.5","","12.7","","61","","6","","7","","24.1","","100.78","","","","","","Mainly Clear"
"2003-09-22 12:00","2003","09","22","12:00"," ","21.8","","12.6","","56","","15","","7","","24.1","","100.77","","","","","","Mainly Clear"
"2003-09-22 13:00","2003","09","22","13:00"," ","22.5","","11.7","","50","","17","","7","","24.1","","100.74","","25","","","","Mainly Clear"
"2003-09-22 14:00","2003","09","22","14:00"," ","23.0","","12.3","","51","","23","","6","","24.1","","100.71","","25","","","","Mostly Cloudy"
"2003-09-22 15:00","2003","09","22","15:00"," ","22.4","","12.7","","54","","","","0","","24.1","","100.68","","25","","","","Mostly Cloudy"
"2003-09-22 16:00","2003","09","22","16:00"," ","22.2","","12.9","","56","","17","","15","","24.1","","100.64","","25","","","","Mainly Clear"
"2003-09-22 17:00","2003","09","22","17:00"," ","20.6","","13.2","","63","","16","","11","","24.1","","100.67","","","","","","Mostly Cloudy"
"2003-09-22 18:00","2003","09","22","18:00"," ","18.8","","13.3","","70","","17","","11","","24.1","","100.67","","","","","","Mostly Cloudy"
"2003-09-22 19:00","2003","09","22","19:00"," ","17.6","","14.1","","80","","16","","7","","24.1","","100.70","","","","","","Mostly Cloudy"
"2003-09-22 20:00","2003","09","22","20:00"," ","17.1","","14.1","","83","","15","","11","","24.1","","100.72","","","","","","Mostly Cloudy"
"2003-09-22 21:00","2003","09","22","21:00"," ","16.4","","14.7","","90","","14","","9","","24.1","","100.75","","","","","","Mostly Cloudy"
"2003-09-22 22:00","2003","09","22","22:00"," ","15.2","","14.6","","96","","14","","13","","16.1","","100.75","","","","","","Mostly Cloudy"
"2003-09-22 23:00","2003","09","22","23:00"," ","15.0","","14.9","","99","","15","","11","","16.1","","100.72","","","","","","Mainly Clear"
"2003-09-23 00:00","2003","09","23","00:00"," ","14.6","","14.6","","100","","17","","9","","1.6","","100.67","","","","","","Fog"
"2003-09-23 01:00","2003","09","23","01:00"," ","15.3","","15.3","","100","","16","","7","","0.8","","100.65","","","","","","Fog"
"2003-09-23 02:00","2003","09","23","02:00"," ","14.5","","14.5","","100","","15","","9","","1.2","","100.62","","","","","","Fog"
"2003-09-23 03:00","2003","09","23","03:00"," ","14.9","","14.9","","100","","14","","11","","1.2","","100.59","","","","","","Fog"
"2003-09-23 04:00","2003","09","23","04:00"," ","15.7","","15.7","","100","","12","","11","","1.2","","100.53","","","","","","Fog"
"2003-09-23 05:00","2003","09","23","05:00"," ","16.0","","16.0","","100","","13","","13","","1.2","","100.53","","","","","","Fog"
"2003-09-23 06:00","2003","09","23","06:00"," ","16.3","","16.3","","100","","13","","11","","1.2","","100.50","","","","","","Fog"
"2003-09-23 07:00","2003","09","23","07:00"," ","16.6","","16.4","","99","","14","","13","","3.2","","100.49","","","","","","Fog"
"2003-09-23 08:00","2003","09","23","08:00"," ","17.5","","16.7","","95","","16","","19","","4.8","","100.49","","","","","","Fog"
"2003-09-23 09:00","2003","09","23","09:00"," ","18.6","","16.1","","85","","14","","22","","16.1","","100.44","","","","","","Mostly Cloudy"
"2003-09-23 10:00","2003","09","23","10:00"," ","18.6","","16.5","","88","","13","","20","","16.1","","100.38","","","","","","Mostly Cloudy"
"2003-09-23 11:00","2003","09","23","11:00"," ","18.5","","17.3","","93","","14","","19","","16.1","","100.34","","","","","","Cloudy"
"2003-09-23 12:00","2003","09","23","12:00"," ","19.7","","18.0","","90","","14","","28","","16.1","","100.30","","","","","","Cloudy"
"2003-09-23 13:00","2003","09","23","13:00"," ","21.5","","18.0","","80","","15","","19","","24.1","","100.21","","28","","","","Mostly Cloudy"
"2003-09-23 14:00","2003","09","23","14:00"," ","21.8","","18.1","","80","","16","","32","","24.1","","100.14","","28","","","","Mostly Cloudy"
"2003-09-23 15:00","2003","09","23","15:00"," ","21.9","","18.6","","82","","16","","28","","24.1","","100.09","","28","","","","Mostly Cloudy"
"2003-09-23 16:00","2003","09","23","16:00"," ","21.3","","18.6","","85","","17","","32","","24.1","","100.04","","28","","","","Mostly Cloudy"
"2003-09-23 17:00","2003","09","23","17:00"," ","20.7","","18.9","","89","","17","","30","","24.1","","99.99","","27","","","","Mostly Cloudy"
"2003-09-23 18:00","2003","09","23","18:00"," ","20.1","","19.0","","93","","16","","20","","16.1","","99.97","","27","","","","Rain Showers"
"2003-09-23 19:00","2003","09","23","19:00"," ","19.8","","18.9","","95","","16","","28","","16.1","","99.94","","","","","","Cloudy"
"2003-09-23 20:00","2003","09","23","20:00"," ","20.0","","18.8","","93","","16","","28","","24.1","","99.91","","27","","","","Cloudy"
"2003-09-23 21:00","2003","09","23","21:00"," ","20.3","","18.9","","92","","16","","30","","12.9","","99.88","","27","","","","Rain Showers"
"2003-09-23 22:00","2003","09","23","22:00"," ","19.8","","19.0","","95","","17","","35","","11.3","","99.83","","","","","","Rain Showers"
"2003-09-23 23:00","2003","09","23","23:00"," ","19.5","","19.0","","97","","16","","30","","4.8","","99.74","","","","","","Rain Showers,Fog"
"2003-09-24 00:00","2003","09","24","00:00"," ","19.6","","18.9","","96","","17","","30","","9.7","","99.68","","","","","","Rain Showers,Fog"
"2003-09-24 01:00","2003","09","24","01:00"," ","19.5","","18.8","","96","","18","","28","","12.9","","99.67","","","","","","Rain Showers"
"2003-09-24 02:00","2003","09","24","02:00"," ","19.7","","19.3","","98","","18","","24","","2.4","","99.62","","","","","","Fog"
"2003-09-24 03:00","2003","09","24","03:00"," ","20.0","","19.3","","96","","18","","26","","3.2","","99.58","","27","","","","Fog"
"2003-09-24 04:00","2003","09","24","04:00"," ","19.3","","18.5","","95","","18","","30","","4.8","","99.53","","","","","","Fog"
"2003-09-24 05:00","2003","09","24","05:00"," ","19.6","","19.1","","97","","17","","32","","3.2","","99.50","","","","","","Rain Showers,Fog"
"2003-09-24 06:00","2003","09","24","06:00"," ","20.3","","20.0","","98","","19","","22","","3.2","","99.49","","28","","","","Moderate Rain Showers,Fog"
"2003-09-24 07:00","2003","09","24","07:00"," ","19.8","","19.6","","99","","21","","33","","2.4","","99.57","","","","","","Rain Showers,Fog"
"2003-09-24 08:00","2003","09","24","08:00"," ","19.4","","19.2","","99","","22","","20","","4.8","","99.61","","","","","","Fog"
"2003-09-24 09:00","2003","09","24","09:00"," ","19.6","","18.9","","96","","23","","19","","9.7","","99.68","","","","","","Fog"
"2003-09-24 10:00","2003","09","24","10:00"," ","19.9","","18.0","","89","","26","","15","","24.1","","99.73","","","","","","Mostly Cloudy"
"2003-09-24 11:00","2003","09","24","11:00"," ","21.5","","17.2","","77","","28","","15","","32.2","","99.75","","27","","","","Mainly Clear"
"2003-09-24 12:00","2003","09","24","12:00"," ","22.3","","16.7","","71","","29","","17","","32.2","","99.80","","27","","","","Mainly Clear"
"2003-09-24 13:00","2003","09","24","13:00"," ","22.6","","14.2","","59","","28","","15","","32.2","","99.81","","26","","","","Mostly Cloudy"
"2003-09-24 14:00","2003","09","24","14:00"," ","22.6","","12.9","","54","","28","","19","","24.1","","99.83","","25","","","","Mostly Cloudy"
"2003-09-24 15:00","2003","09","24","15:00"," ","22.9","","10.6","","46","","29","","17","","24.1","","99.87","","","","","","Mainly Clear"
"2003-09-24 16:00","2003","09","24","16:00"," ","21.8","","9.8","","46","","30","","20","","24.1","","99.93","","","","","","Mainly Clear"
"2003-09-24 17:00","2003","09","24","17:00"," ","20.6","","11.5","","56","","27","","9","","24.1","","99.95","","","","","","Mostly Cloudy"
"2003-09-24 18:00","2003","09","24","18:00"," ","19.7","","12.4","","63","","30","","7","","24.1","","100.02","","","","","","Mainly Clear"
"2003-09-24 19:00","2003","09","24","19:00"," ","16.6","","11.4","","71","","28","","7","","24.1","","100.11","","","","","","Mainly Clear"
"2003-09-24 20:00","2003","09","24","20:00"," ","14.7","","10.8","","77","","36","","7","","24.1","","100.21","","","","","","Mainly Clear"
"2003-09-24 21:00","2003","09","24","21:00"," ","13.8","","11.9","","88","","34","","9","","24.1","","100.27","","","","","","Mainly Clear"
"2003-09-24 22:00","2003","09","24","22:00"," ","13.2","","11.5","","89","","8","","4","","32.2","","100.28","","","","","","Clear"
"2003-09-24 23:00","2003","09","24","23:00"," ","12.4","","10.7","","89","","","","0","","32.2","","100.29","","","","","","Clear"
"2003-09-25 00:00","2003","09","25","00:00"," ","12.3","","10.7","","90","","","","0","","32.2","","100.30","","","","","","Clear"
"2003-09-25 01:00","2003","09","25","01:00"," ","11.7","","10.8","","94","","","","0","","24.1","","100.30","","","","","","Clear"
"2003-09-25 02:00","2003","09","25","02:00"," ","11.3","","10.7","","96","","34","","4","","24.1","","100.30","","","","","","Clear"
"2003-09-25 03:00","2003","09","25","03:00"," ","9.9","","9.9","","100","","32","","4","","32.2","","100.30","","","","","","Clear"
"2003-09-25 04:00","2003","09","25","04:00"," ","10.0","","10.0","","100","","","","0","","32.2","","100.33","","","","","","Clear"
"2003-09-25 05:00","2003","09","25","05:00"," ","10.6","","10.2","","97","","","","0","","32.2","","100.35","","","","","","Mainly Clear"
"2003-09-25 06:00","2003","09","25","06:00"," ","10.8","","10.3","","97","","13","","6","","24.1","","100.38","","","","","","Mainly Clear"
"2003-09-25 07:00","2003","09","25","07:00"," ","9.8","","9.1","","95","","","","0","","24.1","","100.43","","","","","","Mainly Clear"
"2003-09-25 08:00","2003","09","25","08:00"," ","13.5","","11.8","","89","","18","","4","","24.1","","100.43","","","","","","Mainly Clear"
"2003-09-25 09:00","2003","09","25","09:00"," ","15.9","","11.8","","77","","16","","9","","24.1","","100.43","","","","","","Mostly Cloudy"
"2003-09-25 10:00","2003","09","25","10:00"," ","17.5","","12.5","","72","","15","","9","","24.1","","100.41","","","","","","Mostly Cloudy"
"2003-09-25 11:00","2003","09","25","11:00"," ","19.8","","10.3","","54","","20","","15","","24.1","","100.38","","","","","","Mostly Cloudy"
"2003-09-25 12:00","2003","09","25","12:00"," ","20.8","","10.0","","50","","18","","17","","24.1","","100.34","","","","","","Mostly Cloudy"
"2003-09-25 13:00","2003","09","25","13:00"," ","20.9","","9.1","","47","","17","","15","","24.1","","100.29","","","","","","Mostly Cloudy"
"2003-09-25 14:00","2003","09","25","14:00"," ","21.1","","9.3","","47","","16","","17","","24.1","","100.24","","","","","","Mostly Cloudy"
"2003-09-25 15:00","2003","09","25","15:00"," ","20.2","","12.2","","60","","18","","19","","24.1","","100.23","","","","","","Mostly Cloudy"
"2003-09-25 16:00","2003","09","25","16:00"," ","19.2","","13.9","","71","","17","","15","","24.1","","100.21","","","","","","Mostly Cloudy"
"2003-09-25 17:00","2003","09","25","17:00"," ","18.3","","13.8","","75","","17","","15","","24.1","","100.19","","","","","","Mostly Cloudy"
"2003-09-25 18:00","2003","09","25","18:00"," ","16.6","","14.8","","89","","16","","11","","24.1","","100.18","","","","","","Mostly Cloudy"
"2003-09-25 19:00","2003","09","25","19:00"," ","15.3","","14.8","","97","","15","","13","","24.1","","100.19","","","","","","Mostly Cloudy"
"2003-09-25 20:00","2003","09","25","20:00"," ","14.5","","14.5","","100","","16","","9","","1.0","","100.20","","","","","","Fog"
"2003-09-25 21:00","2003","09","25","21:00"," ","13.7","","13.7","","100","","17","","11","","2.0","","100.20","","","","","","Fog"
"2003-09-25 22:00","2003","09","25","22:00"," ","13.8","","13.8","","100","","16","","13","","9.7","","100.22","","","","","","Fog"
"2003-09-25 23:00","2003","09","25","23:00"," ","14.7","","14.7","","100","","17","","11","","24.1","","100.20","","","","","","Cloudy"
"2003-09-26 00:00","2003","09","26","00:00"," ","14.3","","14.3","","100","","17","","13","","9.7","","100.22","","","","","","Fog"
"2003-09-26 01:00","2003","09","26","01:00"," ","14.5","","14.5","","100","","20","","4","","9.7","","100.22","","","","","","Fog"
"2003-09-26 02:00","2003","09","26","02:00"," ","14.1","","14.1","","100","","25","","4","","24.1","","100.24","","","","","","Mainly Clear"
"2003-09-26 03:00","2003","09","26","03:00"," ","13.4","","","M","","M","20","","6","","24.1","","100.28","","","","","","Clear"
"2003-09-26 04:00","2003","09","26","04:00"," ","12.8","","","M","","M","18","","4","","1.2","","100.28","","","","","","Fog"
"2003-09-26 05:00","2003","09","26","05:00"," ","12.9","","","M","","M","17","","6","","24.1","","100.30","","","","","","Mainly Clear"
"2003-09-26 06:00","2003","09","26","06:00"," ","13.4","","13.4","","100","","16","","7","","24.1","","100.33","","","","","","Mostly Cloudy"
"2003-09-26 07:00","2003","09","26","07:00"," ","12.4","","12.4","","100","","16","","9","","19.3","","100.38","","","","","","Mostly Cloudy"
"2003-09-26 08:00","2003","09","26","08:00"," ","15.2","","14.5","","96","","17","","6","","24.1","","100.43","","","","","","Mostly Cloudy"
"2003-09-26 09:00","2003","09","26","09:00"," ","17.4","","14.7","","84","","19","","6","","24.1","","100.49","","","","","","Mostly Cloudy"
"2003-09-26 10:00","2003","09","26","10:00"," ","18.4","","14.0","","76","","","","0","","24.1","","100.50","","","","","","Mostly Cloudy"
"2003-09-26 11:00","2003","09","26","11:00"," ","20.4","","12.5","","60","","","","0","","24.1","","100.52","","","","","","Mostly Cloudy"
"2003-09-26 12:00","2003","09","26","12:00"," ","21.9","","12.8","","56","","22","","6","","24.1","","100.52","","25","","","","Mostly Cloudy"
"2003-09-26 13:00","2003","09","26","13:00"," ","22.2","","12.9","","56","","16","","13","","24.1","","100.51","","25","","","","Mainly Clear"
"2003-09-26 14:00","2003","09","26","14:00"," ","22.0","","11.6","","52","","18","","11","","24.1","","100.54","","","","","","Mostly Cloudy"
"2003-09-26 15:00","2003","09","26","15:00"," ","21.8","","10.9","","50","","17","","19","","24.1","","100.54","","","","","","Mostly Cloudy"
"2003-09-26 16:00","2003","09","26","16:00"," ","21.2","","10.2","","49","","16","","11","","24.1","","100.54","","","","","","Mostly Cloudy"
"2003-09-26 17:00","2003","09","26","17:00"," ","19.7","","12.1","","62","","15","","7","","24.1","","100.55","","","","","","Mostly Cloudy"
"2003-09-26 18:00","2003","09","26","18:00"," ","18.6","","15.0","","80","","14","","9","","24.1","","100.57","","","","","","Mostly Cloudy"
"2003-09-26 19:00","2003","09","26","19:00"," ","17.8","","16.3","","91","","14","","11","","24.1","","100.60","","","","","","Mostly Cloudy"
"2003-09-26 20:00","2003","09","26","20:00"," ","17.3","","16.6","","96","","15","","9","","19.3","","100.64","","","","","","Cloudy"
"2003-09-26 21:00","2003","09","26","21:00"," ","17.2","","16.9","","98","","15","","15","","12.9","","100.70","","","","","","Cloudy"
"2003-09-26 22:00","2003","09","26","22:00"," ","16.8","","16.8","","100","","14","","11","","1.6","","100.70","","","","","","Fog"
"2003-09-26 23:00","2003","09","26","23:00"," ","16.9","","16.9","","100","","14","","11","","3.2","","100.71","","","","","","Fog"
"2003-09-27 00:00","2003","09","27","00:00"," ","17.3","","17.3","","100","","13","","11","","1.2","","100.70","","","","","","Fog"
"2003-09-27 01:00","2003","09","27","01:00"," ","17.5","","17.5","","100","","13","","9","","0.2","","100.71","","","","","","Fog"
"2003-09-27 02:00","2003","09","27","02:00"," ","17.9","","17.9","","100","","13","","9","","0.2","","100.75","","","","","","Fog"
"2003-09-27 03:00","2003","09","27","03:00"," ","18.3","","18.3","","100","","16","","11","","0.4","","100.73","","","","","","Fog"
"2003-09-27 04:00","2003","09","27","04:00"," ","18.6","","18.6","","100","","17","","9","","0.8","","100.73","","","","","","Fog"
"2003-09-27 05:00","2003","09","27","05:00"," ","18.6","","18.6","","100","","14","","9","","0.8","","100.74","","","","","","Fog"
"2003-09-27 06:00","2003","09","27","06:00"," ","18.2","","18.2","","100","","13","","9","","9.7","","100.77","","","","","","Fog"
"2003-09-27 07:00","2003","09","27","07:00"," ","18.0","","18.0","","100","","13","","11","","3.2","","100.79","","","","","","Fog"
"2003-09-27 08:00","2003","09","27","08:00"," ","18.9","","18.7","","99","","12","","11","","12.9","","100.84","","","","","","Cloudy"
"2003-09-27 09:00","2003","09","27","09:00"," ","20.1","","18.9","","93","","13","","17","","24.1","","100.84","","27","","","","Mostly Cloudy"
"2003-09-27 10:00","2003","09","27","10:00"," ","21.0","","18.1","","84","","16","","15","","24.1","","100.91","","27","","","","Mostly Cloudy"
"2003-09-27 11:00","2003","09","27","11:00"," ","21.4","","17.5","","78","","15","","19","","32.2","","100.89","","27","","","","Mostly Cloudy"
"2003-09-27 12:00","2003","09","27","12:00"," ","22.1","","15.2","","65","","14","","20","","32.2","","100.86","","26","","","","Mostly Cloudy"
"2003-09-27 13:00","2003","09","27","13:00"," ","21.7","","14.5","","64","","14","","20","","32.2","","100.84","","25","","","","Mostly Cloudy"
"2003-09-27 14:00","2003","09","27","14:00"," ","22.0","","16.0","","69","","16","","19","","24.1","","100.81","","27","","","","Mostly Cloudy"
"2003-09-27 15:00","2003","09","27","15:00"," ","21.3","","17.6","","79","","14","","17","","24.1","","100.79","","27","","","","Cloudy"
"2003-09-27 16:00","2003","09","27","16:00"," ","20.8","","17.8","","83","","14","","20","","24.1","","100.79","","27","","","","Cloudy"
"2003-09-27 17:00","2003","09","27","17:00"," ","20.2","","17.7","","86","","12","","17","","24.1","","100.77","","26","","","","Cloudy"
"2003-09-27 18:00","2003","09","27","18:00"," ","19.3","","17.5","","89","","11","","17","","24.1","","100.78","","","","","","Cloudy"
"2003-09-27 19:00","2003","09","27","19:00"," ","18.9","","17.8","","93","","12","","20","","16.1","","100.74","","","","","","Cloudy"
"2003-09-27 20:00","2003","09","27","20:00"," ","18.8","","17.8","","94","","12","","22","","9.7","","100.73","","","","","","Fog"
"2003-09-27 21:00","2003","09","27","21:00"," ","18.7","","17.7","","94","","13","","24","","9.7","","100.72","","","","","","Fog"
"2003-09-27 22:00","2003","09","27","22:00"," ","18.7","","17.6","","93","","13","","30","","9.7","","100.71","","","","","","Fog"
"2003-09-27 23:00","2003","09","27","23:00"," ","18.6","","17.6","","94","","13","","19","","12.9","","100.66","","","","","","Cloudy"
"2003-09-28 00:00","2003","09","28","00:00"," ","18.6","","17.4","","93","","13","","24","","16.1","","100.63","","","","","","Cloudy"
"2003-09-28 01:00","2003","09","28","01:00"," ","18.4","","17.4","","94","","13","","30","","16.1","","100.60","","","","","","Cloudy"
"2003-09-28 02:00","2003","09","28","02:00"," ","18.3","","17.2","","93","","13","","28","","16.1","","100.57","","","","","","Cloudy"
"2003-09-28 03:00","2003","09","28","03:00"," ","18.2","","17.3","","94","","13","","28","","16.1","","100.52","","","","","","Cloudy"
"2003-09-28 04:00","2003","09","28","04:00"," ","18.4","","17.0","","92","","12","","28","","16.1","","100.45","","","","","","Cloudy"
"2003-09-28 05:00","2003","09","28","05:00"," ","18.2","","16.9","","92","","13","","26","","16.1","","100.42","","","","","","Cloudy"
"2003-09-28 06:00","2003","09","28","06:00"," ","18.3","","16.9","","92","","13","","26","","16.1","","100.37","","","","","","Cloudy"
"2003-09-28 07:00","2003","09","28","07:00"," ","18.2","","17.0","","93","","12","","30","","12.9","","100.35","","","","","","Cloudy"
"2003-09-28 08:00","2003","09","28","08:00"," ","18.3","","16.8","","91","","13","","28","","16.1","","100.35","","","","","","Cloudy"
"2003-09-28 09:00","2003","09","28","09:00"," ","18.7","","16.3","","86","","12","","32","","16.1","","100.34","","","","","","Cloudy"
"2003-09-28 10:00","2003","09","28","10:00"," ","18.9","","16.5","","86","","13","","22","","16.1","","100.29","","","","","","Cloudy"
"2003-09-28 11:00","2003","09","28","11:00"," ","19.1","","16.7","","86","","13","","30","","16.1","","100.22","","","","","","Cloudy"
"2003-09-28 12:00","2003","09","28","12:00"," ","19.5","","17.2","","87","","13","","24","","16.1","","100.15","","","","","","Cloudy"
"2003-09-28 13:00","2003","09","28","13:00"," ","19.4","","17.3","","88","","13","","24","","16.1","","100.06","","","","","","Cloudy"
"2003-09-28 14:00","2003","09","28","14:00"," ","20.2","","17.6","","85","","13","","32","","16.1","","99.99","","26","","","","Cloudy"
"2003-09-28 15:00","2003","09","28","15:00"," ","19.8","","17.7","","88","","13","","32","","12.9","","99.89","","","","","","Cloudy"
"2003-09-28 16:00","2003","09","28","16:00"," ","20.1","","17.8","","87","","12","","30","","12.9","","99.81","","26","","","","Cloudy"
"2003-09-28 17:00","2003","09","28","17:00"," ","19.9","","17.7","","87","","12","","33","","12.9","","99.73","","","","","","Cloudy"
"2003-09-28 18:00","2003","09","28","18:00"," ","19.8","","18.0","","89","","11","","33","","9.7","","99.62","","","","","","Rain Showers,Fog"
"2003-09-28 19:00","2003","09","28","19:00"," ","19.7","","18.0","","90","","11","","39","","9.7","","99.56","","","","","","Fog"
"2003-09-28 20:00","2003","09","28","20:00"," ","19.9","","18.2","","90","","12","","44","","12.9","","99.40","","","","","","Cloudy"
"2003-09-28 21:00","2003","09","28","21:00"," ","19.8","","18.9","","95","","10","","46","","4.8","","99.19","","","","","","Rain,Fog"
"2003-09-28 22:00","2003","09","28","22:00"," ","19.7","","19.0","","96","","10","","46","","2.0","","98.76","","","","","","Heavy Rain,Fog"
"2003-09-28 23:00","2003","09","28","23:00"," ","20.0","","18.6","","92","","9","","78","","1.2","","97.79","","26","","","","Heavy Rain,Fog"
"2003-09-29 00:00","2003","09","29","00:00"," ","20.0","","19.9","","99","","14","","85","","0.8","","97.04","","27","","","","Thunderstorms,Heavy Rain,Fog"
"2003-09-29 01:00","2003","09","29","01:00"," ","19.8","","19.6","","99","","18","","74","","3.2","","97.62","","","","","","Fog"
"2003-09-29 02:00","2003","09","29","02:00"," ","20.0","","19.2","","95","","20","","50","","12.9","","98.55","","27","","","","Cloudy"
"2003-09-29 03:00","2003","09","29","03:00"," ","19.6","","19.3","","98","","20","","43","","3.2","","98.94","","","","","","Drizzle,Fog"
"2003-09-29 04:00","2003","09","29","04:00"," ","19.1","","19.0","","99","","20","","32","","2.4","","99.13","","","","","","Rain Showers,Fog"
"2003-09-29 05:00","2003","09","29","05:00"," ","19.0","","19.0","","100","","19","","28","","1.6","","99.22","","","","","","Rain Showers,Fog"
"2003-09-29 06:00","2003","09","29","06:00"," ","18.8","","18.8","","100","","17","","24","","0.4","","99.29","","","","","","Rain Showers,Fog"
"2003-09-29 07:00","2003","09","29","07:00"," ","19.1","","19.1","","100","","16","","19","","0.2","","99.30","","","","","","Rain Showers,Fog"
"2003-09-29 08:00","2003","09","29","08:00"," ","19.6","","19.5","","99","","16","","35","","3.2","","99.24","","","","","","Moderate Rain Showers,Fog"
"2003-09-29 09:00","2003","09","29","09:00"," ","20.0","","19.8","","99","","18","","37","","8.0","","99.26","","27","","","","Rain Showers,Fog"
"2003-09-29 10:00","2003","09","29","10:00"," ","19.9","","19.5","","98","","18","","20","","3.2","","99.34","","","","","","Rain Showers"
"2003-09-29 11:00","2003","09","29","11:00"," ","21.0","","20.3","","96","","19","","26","","8.0","","99.45","","29","","","","Fog"
"2003-09-29 12:00","2003","09","29","12:00"," ","22.1","","19.8","","87","","17","","20","","16.1","","99.54","","30","","","","Cloudy"
"2003-09-29 13:00","2003","09","29","13:00"," ","23.3","","19.9","","81","","18","","24","","24.1","","99.56","","31","","","","Mostly Cloudy"
"2003-09-29 14:00","2003","09","29","14:00"," ","23.0","","19.7","","82","","20","","26","","24.1","","99.56","","30","","","","Mostly Cloudy"
"2003-09-29 15:00","2003","09","29","15:00"," ","22.4","","19.6","","84","","21","","24","","24.1","","99.57","","30","","","","Mostly Cloudy"
"2003-09-29 16:00","2003","09","29","16:00"," ","22.2","","18.8","","81","","18","","19","","24.1","","99.58","","29","","","","Mainly Clear"
"2003-09-29 17:00","2003","09","29","17:00"," ","20.8","","18.3","","86","","16","","15","","24.1","","99.57","","27","","","","Mainly Clear"
"2003-09-29 18:00","2003","09","29","18:00"," ","17.7","","17.7","","100","","15","","20","","0.4","","99.57","","","","","","Fog"
"2003-09-29 19:00","2003","09","29","19:00"," ","16.9","","16.9","","100","","16","","19","","0.4","","99.63","","","","","","Fog"
"2003-09-29 20:00","2003","09","29","20:00"," ","16.9","","16.9","","100","","14","","19","","0.2","","99.59","","","","","","Fog"
"2003-09-29 21:00","2003","09","29","21:00"," ","17.6","","17.6","","100","","15","","19","","0.4","","99.57","","","","","","Fog"
"2003-09-29 22:00","2003","09","29","22:00"," ","17.6","","17.6","","100","","14","","15","","0.2","","99.54","","","","","","Fog"
"2003-09-29 23:00","2003","09","29","23:00"," ","19.0","","19.0","","100","","18","","19","","0.4","","99.50","","","","","","Fog"
"2003-09-30 00:00","2003","09","30","00:00"," ","19.6","","19.6","","100","","19","","28","","4.0","","99.47","","","","","","Rain Showers,Fog"
"2003-09-30 01:00","2003","09","30","01:00"," ","19.1","","19.1","","100","","22","","22","","4.0","","99.54","","","","","","Fog"
"2003-09-30 02:00","2003","09","30","02:00"," ","18.9","","18.4","","97","","21","","19","","6.4","","99.59","","","","","","Fog"
"2003-09-30 03:00","2003","09","30","03:00"," ","17.5","","16.9","","96","","25","","15","","24.1","","99.66","","","","","","Mainly Clear"
"2003-09-30 04:00","2003","09","30","04:00"," ","15.4","","14.9","","97","","25","","13","","24.1","","99.70","","","","","","Mainly Clear"
"2003-09-30 05:00","2003","09","30","05:00"," ","14.1","","13.5","","96","","23","","13","","24.1","","99.77","","","","","","Clear"
"2003-09-30 06:00","2003","09","30","06:00"," ","13.1","","13.0","","99","","23","","15","","19.3","","99.91","","","","","","Mainly Clear"
"2003-09-30 07:00","2003","09","30","07:00"," ","13.2","","13.1","","99","","23","","6","","24.1","","99.99","","","","","","Mainly Clear"
"2003-09-30 08:00","2003","09","30","08:00"," ","14.3","","13.7","","96","","21","","9","","24.1","","100.06","","","","","","Mainly Clear"
"2003-09-30 09:00","2003","09","30","09:00"," ","15.7","","13.1","","85","","25","","11","","24.1","","100.13","","","","","","Mainly Clear"
"2003-09-30 10:00","2003","09","30","10:00"," ","16.8","","11.8","","72","","27","","11","","24.1","","100.15","","","","","","Mainly Clear"
"2003-09-30 11:00","2003","09","30","11:00"," ","18.4","","12.0","","66","","32","","7","","24.1","","100.15","","","","","","Mainly Clear"
"2003-09-30 12:00","2003","09","30","12:00"," ","19.5","","10.8","","57","","26","","11","","24.1","","100.13","","","","","","Mainly Clear"
"2003-09-30 13:00","2003","09","30","13:00"," ","19.2","","8.2","","49","","25","","11","","24.1","","100.12","","","","","","Mainly Clear"
"2003-09-30 14:00","2003","09","30","14:00"," ","19.6","","8.0","","47","","25","","9","","24.1","","100.11","","","","","","Mainly Clear"
"2003-09-30 15:00","2003","09","30","15:00"," ","19.4","","8.8","","50","","22","","13","","24.1","","100.09","","","","","","Mainly Clear"
"2003-09-30 16:00","2003","09","30","16:00"," ","19.6","","9.6","","52","","23","","9","","24.1","","100.11","","","","","","Mainly Clear"
"2003-09-30 17:00","2003","09","30","17:00"," ","18.9","","10.4","","58","","23","","17","","24.1","","100.11","","","","","","Mainly Clear"
"2003-09-30 18:00","2003","09","30","18:00"," ","16.7","","12.3","","75","","21","","17","","24.1","","100.15","","","","","","Mainly Clear"
"2003-09-30 19:00","2003","09","30","19:00"," ","15.1","","12.8","","86","","27","","7","","24.1","","100.20","","","","","","Mainly Clear"
"2003-09-30 20:00","2003","09","30","20:00"," ","13.7","","11.4","","86","","3","","6","","24.1","","100.29","","","","","","Mainly Clear"
"2003-09-30 21:00","2003","09","30","21:00"," ","12.8","","10.6","","86","","35","","9","","24.1","","100.33","","","","","","Mainly Clear"
"2003-09-30 22:00","2003","09","30","22:00"," ","12.4","","10.0","","85","","33","","7","","24.1","","100.34","","","","","","Clear"
"2003-09-30 23:00","2003","09","30","23:00"," ","11.3","","9.4","","88","","34","","7","","24.1","","100.35","","","","","","Clear"
